Store_Name,Longitude,Latitude,Address,Address Line #2,City,State,Zip5,Zip4,County,name_no_num,code,row_num,definition
THORNTONS QUICK CAFE & MARKET 155,-85.74926,38.127804,8405 National Tpke,NA,Louisville,KY,40214,5816,JEFFERSON,THORNTONS QUICK CAFE  MARKET,445120,3,Convenience Store
DAIRY MART #3282,-85.795906,38.259724,2728 W Market St,NA,Louisville,KY,40212,1845,JEFFERSON,DAIRY MART,447110,4,Food Mart
PAPA MURPHY'S TAKE 'N' BAKE PIZZA KY 002,-85.640114,38.258678,291 N Hubbards Ln,NA,Louisville,KY,40207,2295,JEFFERSON,PAPA MURPHYS TAKE N BAKE PIZZA KY,445120,3,Convenience Store
CORNER MARKET,-85.79306,38.265846,358 N 26th St,NA,Louisville,KY,40212,1439,JEFFERSON,CORNER MARKET,445120,3,Convenience Store
Walmart SUPERCENTER 5418,-85.670166,38.200035,2020 Bashford Manor Ln,NA,Louisville,KY,40218,2114,JEFFERSON,WALMART SUPERCENTER,445110,1,Grocery
Circle K 272137,-85.697212,38.157345,6517 Preston Hwy,NA,Louisville,KY,40219,1819,JEFFERSON,CIRCLE K,445120,3,Convenience Store
Circle K 2723224,-85.783234,38.186626,1255 W Ashland Ave,NA,Louisville,KY,40215,2509,JEFFERSON,CIRCLE K,445120,3,Convenience Store
JR'S QUICK MART,-85.743675,38.231327,701 Camp St,NA,Louisville,KY,40203,2606,JEFFERSON,JRS QUICK MART,445120,3,Convenience Store
WALGREEN 09005,-85.751434,38.245571,200 E Broadway,NA,Louisville,KY,40202,2008,JEFFERSON,WALGREEN,445120,3,Convenience Store
Walmart SUPERCENTER 5417,-85.778938,38.126629,175 Outer Loop,NA,Louisville,KY,40214,5544,JEFFERSON,WALMART SUPERCENTER,445110,1,Grocery
SAVE A LOT,-85.783577,38.181644,4148 Taylor Blvd,NA,Louisville,KY,40215,2342,JEFFERSON,SAVE A LOT,445110,1,Grocery
RITE AID 4642,-85.822868,38.174644,4721 Dixie Hwy,NA,Shively,KY,40216,2654,JEFFERSON,RITE AID,447110,4,Food Mart
RITE AID 4642,-85.822868,38.174644,4721 Dixie Hwy,NA,Shively,KY,40216,2654,JEFFERSON,RITE AID,445120,3,Convenience Store
RITE AID 4634,-85.667023,38.265572,3805 Brownsboro Rd,NA,Louisville,KY,40207,1821,JEFFERSON,RITE AID,447110,4,Food Mart
RITE AID 4634,-85.667023,38.265572,3805 Brownsboro Rd,NA,Louisville,KY,40207,1821,JEFFERSON,RITE AID,445120,3,Convenience Store
Dollar General Market 9855,-85.668175,38.086819,11400 Preston Hwy,NA,Louisville,KY,40229,2864,JEFFERSON,DOLLAR GENERAL MARKET,445120,3,Convenience Store
CUBA FOOD MART,-85.776138,38.149422,5422 New Cut Rd,Ste 104,Louisville,KY,40214,4272,JEFFERSON,CUBA FOOD MART,445200,5,Specialized Lines of Food
DIXIE ORIENTAL MARKET,-85.653336,38.195374,3900 Bardstown Rd,NA,Louisville,KY,40218,2610,JEFFERSON,DIXIE ORIENTAL MARKET,445200,5,Specialized Lines of Food
Jerrys Market,-85.735748,38.255177,841 E Washington St,NA,Louisville,KY,40206,1631,JEFFERSON,JERRYS MARKET,445120,3,Convenience Store
TARGET STORE T-780,-85.59523,38.217457,4640 Taylorsville Rd,NA,Louisville,KY,40220,3530,JEFFERSON,TARGET STORE T,445110,1,Grocery
Circle K 272119,-85.811707,38.116524,8801 3rd Street Rd,NA,Louisville,KY,40272,2366,JEFFERSON,CIRCLE K,445120,3,Convenience Store
CVS Pharmacy 6209,-85.683685,38.138462,4249 Outer Loop,NA,Louisville,KY,40219,3850,JEFFERSON,CVS PHARMACY,445120,3,Convenience Store
BH INTERNATIONAL MARKET,-85.652534,38.194927,3914 Bardstown Rd,Ste 101,Louisville,KY,40218,2656,JEFFERSON,BH INTERNATIONAL MARKET,445200,5,Specialized Lines of Food
Next Door Convenience Food Mart,-85.68528,38.200405,3303 Newburg Rd,NA,Louisville,KY,40218,2426,JEFFERSON,NEXT DOOR CONVENIENCE FOOD MART,445120,3,Convenience Store
CARDINAL MARKET,-85.803284,38.154243,7312 Saint Andrews Church Rd,NA,Louisville,KY,40214,4012,JEFFERSON,CARDINAL MARKET,445120,3,Convenience Store
VALU MARKET,-85.716423,38.235886,1250 Bardstown Rd,NA,Louisville,KY,40204,1333,JEFFERSON,VALU MARKET,445110,1,Grocery
GORDON FOOD SERVICE MARKETPLACE MP121,-85.840103,38.142307,7483 Dixie Hwy,NA,Louisville,KY,40258,1405,JEFFERSON,GORDON FOOD SERVICE MARKETPLACE MP,445110,1,Grocery
WALGREEN 09524,-85.867142,38.106934,10201 Dixie Hwy,NA,Louisville,KY,40272,3949,JEFFERSON,WALGREEN,445120,3,Convenience Store
KROGER 743,-85.519371,38.187469,12611 Taylorsville Rd,NA,Louisville,KY,40299,4452,JEFFERSON,KROGER,445110,1,Grocery
BROADWAY FOOD MART,-85.820755,38.250282,4132 W Broadway,NA,Louisville,KY,40211,3171,JEFFERSON,BROADWAY FOOD MART,447110,4,Food Mart
KROGER 753,-85.731186,38.224808,1265 Goss Ave,NA,Louisville,KY,40217,1239,JEFFERSON,KROGER,445110,1,Grocery
TARGET STORE T-1071,-85.554985,38.296917,4101 Towne Center Dr,NA,Louisville,KY,40241,4146,JEFFERSON,TARGET STORE T,445110,1,Grocery
SPEEDY MART 25,-85.727036,38.234901,1054 Barret Ave,NA,Louisville,KY,40204,1667,JEFFERSON,SPEEDY MART,445120,3,Convenience Store
SPEEDWAY 3709,-85.706116,38.168278,5608 Preston Hwy,NA,Louisville,KY,40219,1304,JEFFERSON,SPEEDWAY,445120,3,Convenience Store
Circle K 2723235,-85.820076,38.151527,7800 Saint Andrews Church Rd,NA,Louisville,KY,40214,3853,JEFFERSON,CIRCLE K,445120,3,Convenience Store
ZORN AVE BP,-85.69799,38.27599,1035 Zorn Ave,NA,Louisville,KY,40207,1047,JEFFERSON,ZORN AVE BP,445120,3,Convenience Store
PAPA MURPHYS TAKE N BAKE PIZZA,-85.523682,38.245064,12535 Shelbyville Rd,NA,Louisville,KY,40243,1530,JEFFERSON,PAPA MURPHYS TAKE N BAKE PIZZA,445120,3,Convenience Store
Dollar General Market 12016,-85.782883,38.197796,3430 Taylor Blvd,NA,Louisville,KY,40215,2648,JEFFERSON,DOLLAR GENERAL MARKET,445120,3,Convenience Store
GORDON FOOD SERVICE MARKETPLACE MP131,-85.674675,38.144718,7389 Jefferson Blvd,NA,Louisville,KY,40219,6178,JEFFERSON,GORDON FOOD SERVICE MARKETPLACE MP,445110,1,Grocery
DOLLAR TREE 2213,-85.536896,38.247852,11820 Shelbyville Rd,NA,Louisville,KY,40243,1415,JEFFERSON,DOLLAR TREE,445120,3,Convenience Store
DOLLAR TREE 2410,-85.581429,38.284519,9206 Westport Rd,NA,Louisville,KY,40242,3227,JEFFERSON,DOLLAR TREE,445120,3,Convenience Store
JC'S CIGARETTE OUTLET 18,-85.825935,38.195026,2714 Crums Ln,NA,Shively,KY,40216,3633,JEFFERSON,JCS CIGARETTE OUTLET,445120,3,Convenience Store
DOLLAR TREE 1329,-85.854408,38.122803,9070 DIXIE HWY,NA,LOUISVILLE,KY,40258,NA,JEFFERSON,DOLLAR TREE,445120,3,Convenience Store
DOLLAR TREE 1898,-85.622452,38.219612,4060 Taylorsville Rd,NA,Louisville,KY,40220,1502,JEFFERSON,DOLLAR TREE,445120,3,Convenience Store
DOLLAR TREE 1932,-85.704185,38.166599,5713 Preston Hwy,NA,Louisville,KY,40219,1305,JEFFERSON,DOLLAR TREE,445120,3,Convenience Store
DOLLAR TREE 1944,-85.657959,38.200436,2221 Hikes Ln,NA,Louisville,KY,40218,2203,JEFFERSON,DOLLAR TREE,445120,3,Convenience Store
"DERBY DOLLAR STORE, LLC",-85.678673,38.16317,5057 Poplar Level Rd Ste 1,NA,Louisville,KY,40219,1129,JEFFERSON,DERBY DOLLAR STORE LLC,445120,3,Convenience Store
DOLLAR GENERAL 10801,-85.59034,38.198425,9101 Galene Dr,NA,Jeffersontown,KY,40299,1523,JEFFERSON,DOLLAR GENERAL,447110,4,Food Mart
DOLLAR GENERAL 10801,-85.59034,38.198425,9101 Galene Dr,NA,Jeffersontown,KY,40299,1523,JEFFERSON,DOLLAR GENERAL,445120,3,Convenience Store
Walmart NEIGHBORHOOD MARKET 3841,-85.720741,38.211929,3109 Poplar Level Rd,NA,Louisville,KY,40213,1028,JEFFERSON,WALMART NEIGHBORHOOD MARKET,445110,1,Grocery
SHORTYS FOOD MART 1,-85.784706,38.242325,931 Dixie Hwy,NA,Louisville,KY,40210,1226,JEFFERSON,SHORTYS FOOD MART,447110,4,Food Mart
FIVE STAR 5295,-85.713036,38.157104,2800 Fern Valley Rd,NA,Louisville,KY,40213,3518,JEFFERSON,FIVE STAR,445120,3,Convenience Store
PATEL BROTHERS,-85.582993,38.219669,1830 S Hurstbourne Pkwy,NA,Louisville,KY,40220,1644,JEFFERSON,PATEL BROTHERS,445200,5,Specialized Lines of Food
OUTER LOOP SHELL,-85.686966,38.139019,7845 Preston Hwy,NA,Louisville,KY,40219,3140,JEFFERSON,OUTER LOOP SHELL,445120,3,Convenience Store
RIVER ROAD CHEVRON,-85.698692,38.277725,3002 River Rd,NA,Louisville,KY,40207,1013,JEFFERSON,RIVER ROAD CHEVRON,445120,3,Convenience Store
BRECKENRIDGE BP,-85.623726,38.200123,3401 Breckenridge Ln,NA,Louisville,KY,40220,3101,JEFFERSON,BRECKENRIDGE BP,445120,3,Convenience Store
Klondike Market & Deli,-85.639977,38.210339,3610 Klondike Ln,NA,Louisville,KY,40218,1711,JEFFERSON,KLONDIKE MARKET  DELI,445120,3,Convenience Store
Circle K 2723244,-85.619659,38.339348,9109 US Highway 42,NA,Prospect,KY,40059,8841,JEFFERSON,CIRCLE K,445120,3,Convenience Store
Circle K 272111,-85.856033,38.120861,9200 Dixie Hwy,NA,Louisville,KY,40272,3337,JEFFERSON,CIRCLE K,445120,3,Convenience Store
Circle K 2723233,-85.758659,38.104855,404 Mount Holly Rd,NA,Fairdale,KY,40118,9408,JEFFERSON,CIRCLE K,445120,3,Convenience Store
Circle K 2723242,-85.75441,38.140972,8615 National Tpke,NA,Louisville,KY,40214,347,JEFFERSON,CIRCLE K,445120,3,Convenience Store
Circle K 272117,-85.577919,38.269394,9619 Whipps Mill Rd,NA,Louisville,KY,40242,3644,JEFFERSON,CIRCLE K,445120,3,Convenience Store
Circle K 2723240,-85.605141,38.185215,4600 Wattbourne Ln,NA,Louisville,KY,40299,3492,JEFFERSON,CIRCLE K,445120,3,Convenience Store
Circle K 2723303,-85.864571,38.106865,5414 Valley Station Rd,NA,Louisville,KY,40272,3959,JEFFERSON,CIRCLE K,445120,3,Convenience Store
Circle K 2723243,-85.601807,38.295734,8001 Brownsboro Rd,NA,Louisville,KY,40241,2827,JEFFERSON,CIRCLE K,445120,3,Convenience Store
Circle K 2723226,-85.578224,38.131607,7951 Bardstown Rd,NA,Louisville,KY,40291,3437,JEFFERSON,CIRCLE K,445120,3,Convenience Store
Walmart Supercenter 4450,-85.511612,38.242844,12981 Shelbyville Rd,NA,Middletown,KY,40243,1538,JEFFERSON,WALMART SUPERCENTER,445110,1,Grocery
Circle K 272107,-85.591492,38.198448,9003 Galene Dr,NA,Louisville,KY,40299,1521,JEFFERSON,CIRCLE K,445120,3,Convenience Store
Circle K 2723228,-85.852722,38.144108,5203 Greenwood Rd,NA,Louisville,KY,40258,3501,JEFFERSON,CIRCLE K,445120,3,Convenience Store
Circle K 2723223,-85.569115,38.270916,9901 La Grange Rd,NA,Louisville,KY,40223,1126,JEFFERSON,CIRCLE K,445120,3,Convenience Store
Walmart Neighborhood Market 4523,-85.546265,38.242142,201 Blankenbaker Pkwy,NA,Louisville,KY,40243,1877,JEFFERSON,WALMART NEIGHBORHOOD MARKET,445110,1,Grocery
Target Store T-1479,-85.669296,38.198925,3600 Mall Rd,NA,Louisville,KY,40218,5403,JEFFERSON,TARGET STORE T,445110,1,Grocery
Circle K 2723225,-85.627449,38.144924,7201 Fegenbush Ln,NA,Louisville,KY,40228,1507,JEFFERSON,CIRCLE K,445120,3,Convenience Store
Walgreens 9412,-85.828964,38.167744,5100 Dixie Hwy,NA,Louisville,KY,40216,1702,JEFFERSON,WALGREENS,447110,4,Food Mart
Walgreens 9412,-85.828964,38.167744,5100 Dixie Hwy,NA,Louisville,KY,40216,1702,JEFFERSON,WALGREENS,445120,3,Convenience Store
SPEEDWAY 9529,-85.613907,38.270641,1415 Lyndon Ln,NA,Louisville,KY,40222,4323,JEFFERSON,SPEEDWAY,445120,3,Convenience Store
SPEEDWAY 9646,-85.806381,38.19455,3915 Dixie Hwy,NA,Louisville,KY,40216,4119,JEFFERSON,SPEEDWAY,445120,3,Convenience Store
SPEEDWAY 9640,-85.822853,38.174782,4720 Dixie Hwy,NA,Louisville,KY,40216,2644,JEFFERSON,SPEEDWAY,445120,3,Convenience Store
A CHAU GROCERY,-85.7677,38.172977,5107 S 3rd St,NA,Louisville,KY,40214,2601,JEFFERSON,A CHAU GROCERY,445200,5,Specialized Lines of Food
LA BODEQUITA,-85.67971,38.164627,5039 Poplar Level Rd,NA,Louisville,KY,40219,1119,JEFFERSON,LA BODEQUITA,445200,5,Specialized Lines of Food
Dollar Tree 1047,-85.583351,38.219482,1850 S Hurstbourne Pkwy,Ste 155,Louisville,KY,40220,1601,JEFFERSON,DOLLAR TREE,445120,3,Convenience Store
DINOS FOOD MART,-85.680695,38.165791,5014 Poplar Level Rd,NA,Louisville,KY,40219,1125,JEFFERSON,DINOS FOOD MART,447110,4,Food Mart
Walmart Supercenter 3610,-85.869873,38.172836,7100 Raggard Rd,NA,Louisville,KY,40216,1287,JEFFERSON,WALMART SUPERCENTER,445110,1,Grocery
Walmart Neighborhood Market 4524,-85.83432,38.156765,5360 Dixie Hwy,NA,Louisville,KY,40216,1564,JEFFERSON,WALMART NEIGHBORHOOD MARKET,445110,1,Grocery
Rite Aid Pharmacy 4647,-85.657639,38.138756,7700 Shepherdsville Rd,NA,Louisville,KY,40219,4021,JEFFERSON,RITE AID PHARMACY,447110,4,Food Mart
Rite Aid Pharmacy 4647,-85.657639,38.138756,7700 Shepherdsville Rd,NA,Louisville,KY,40219,4021,JEFFERSON,RITE AID PHARMACY,445120,3,Convenience Store
Rite Aid Pharmacy 4644,-85.843025,38.119415,701 Valley College Dr,NA,Louisville,KY,40272,2796,JEFFERSON,RITE AID PHARMACY,447110,4,Food Mart
Rite Aid Pharmacy 4644,-85.843025,38.119415,701 Valley College Dr,NA,Louisville,KY,40272,2796,JEFFERSON,RITE AID PHARMACY,445120,3,Convenience Store
Rite Aid Pharmacy 4648,-85.679993,38.12627,8651 Preston Hwy,NA,Louisville,KY,40219,5305,JEFFERSON,RITE AID PHARMACY,447110,4,Food Mart
Rite Aid Pharmacy 4648,-85.679993,38.12627,8651 Preston Hwy,NA,Louisville,KY,40219,5305,JEFFERSON,RITE AID PHARMACY,445120,3,Convenience Store
SUBZI MANDI,-85.623047,38.178989,4746 Bardstown Rd,NA,Louisville,KY,40218,4006,JEFFERSON,SUBZI MANDI,445200,5,Specialized Lines of Food
SAMS KWIK MART,-85.830421,38.204735,4060 Cane Run Rd,NA,Louisville,KY,40216,4802,JEFFERSON,SAMS KWIK MART,447110,4,Food Mart
DISCOUNT CIGARETTE AND LIQUOR OUTLET,-85.657745,38.140072,7613 Shepherdsville Rd,NA,Louisville,KY,40219,2944,JEFFERSON,DISCOUNT CIGARETTE AND LIQUOR OUTLET,445120,3,Convenience Store
DISCOUNT CIGARETTE AND LIQUOR OUTLET,-85.657745,38.140072,7613 Shepherdsville Rd,NA,Louisville,KY,40219,2944,JEFFERSON,DISCOUNT CIGARETTE AND LIQUOR OUTLET,447110,4,Food Mart
Rite Aid 7870,-85.577797,38.13092,8014 Bardstown Rd,NA,Louisville,KY,40291,3440,JEFFERSON,RITE AID,447110,4,Food Mart
Rite Aid 7870,-85.577797,38.13092,8014 Bardstown Rd,NA,Louisville,KY,40291,3440,JEFFERSON,RITE AID,445120,3,Convenience Store
SPEEDWAY 9645,-85.775642,38.145573,7400 3rd Street Rd,NA,Louisville,KY,40214,4362,JEFFERSON,SPEEDWAY,445120,3,Convenience Store
Aldi 36,-85.828835,38.167763,5109 Dixie Hwy,NA,Louisville,KY,40216,1701,JEFFERSON,ALDI,445110,1,Grocery
DERBY SMOKE SHOP WEST GROCERY,-85.768471,38.247177,1001 W Broadway,NA,Louisville,KY,40203,2030,JEFFERSON,DERBY SMOKE SHOP WEST GROCERY,447110,4,Food Mart
Fine Stop Food Mart,-85.787918,38.183033,4114 Hazelwood Ave,NA,Louisville,KY,40215,1209,JEFFERSON,FINE STOP FOOD MART,447110,4,Food Mart
LA TROPICANA,-85.710228,38.172321,5215 Preston Hwy,NA,Louisville,KY,40213,2721,JEFFERSON,LA TROPICANA,445200,5,Specialized Lines of Food
Dollar Tree 1354,-85.806915,38.192627,3923 7th Street Rd,NA,Louisville,KY,40216,4103,JEFFERSON,DOLLAR TREE,445120,3,Convenience Store
Dollar Tree 2307,-85.597801,38.16407,5622 Bardstown Rd,NA,Louisville,KY,40291,1912,JEFFERSON,DOLLAR TREE,445120,3,Convenience Store
Sam's Club 8111,-85.534935,38.221848,1401 Alliant Ave,NA,Louisville,KY,40299,6372,JEFFERSON,SAMS CLUB,452910,2,Super Center and Club Store
Sam's Club 8276,-85.696152,38.155315,6622 Preston Hwy,NA,Louisville,KY,40219,1843,JEFFERSON,SAMS CLUB,452910,2,Super Center and Club Store
Walgreens 5001,-85.685265,38.223213,2490 Bardstown Rd,NA,Louisville,KY,40205,2123,JEFFERSON,WALGREENS,447110,4,Food Mart
Walgreens 5001,-85.685265,38.223213,2490 Bardstown Rd,NA,Louisville,KY,40205,2123,JEFFERSON,WALGREENS,445120,3,Convenience Store
Dollar Tree 3355,-85.669464,38.090717,5023 Mud Ln,NA,Louisville,KY,40229,2870,JEFFERSON,DOLLAR TREE,445120,3,Convenience Store
Family Dollar Store 2424,-85.716423,38.235886,1250 Bardstown Rd,NA,Louisville,KY,40204,1333,JEFFERSON,FAMILY DOLLAR STORE,445120,3,Convenience Store
Kroger 780,-85.871399,38.099789,10645 Dixie Hwy,NA,Louisville,KY,40272,4349,JEFFERSON,KROGER,445110,1,Grocery
Mi Preferida,-85.623001,38.178963,4752 Bardstown Rd,NA,Louisville,KY,40218,4006,JEFFERSON,MI PREFERIDA,445200,5,Specialized Lines of Food
OAK STREET FOODMART,-85.750397,38.234146,331 E Oak St,NA,Louisville,KY,40203,2727,JEFFERSON,OAK STREET FOODMART,447110,4,Food Mart
SOUTHWEST FARMERS MARKET,-85.866806,38.107674,10200 Dixie Hwy,NA,Louisville,KY,40272,3999,JEFFERSON,SOUTHWEST FARMERS MARKET,6,6,Farmer's Market
Walgreens 03618,-85.598122,38.21138,2360 Stony Brook Dr,NA,Louisville,KY,40220,4018,JEFFERSON,WALGREENS,447110,4,Food Mart
Walgreens 03618,-85.598122,38.21138,2360 Stony Brook Dr,NA,Louisville,KY,40220,4018,JEFFERSON,WALGREENS,445120,3,Convenience Store
Circle K 2723236,-85.541183,38.226059,11721 Gateworth Way,NA,Louisville,KY,40299,4673,JEFFERSON,CIRCLE K,445120,3,Convenience Store
CVS Pharmacy 6208,-85.688309,38.223743,2410 Bardstown Rd,NA,Louisville,KY,40205,2123,JEFFERSON,CVS PHARMACY,445120,3,Convenience Store
RAINBOW BLOSSOM,-85.672775,38.213055,3046 Bardstown Rd,NA,Louisville,KY,40205,3020,JEFFERSON,RAINBOW BLOSSOM,445110,1,Grocery
Save-A-Step,-85.498413,38.301636,13702 Lagrange Rd,NA,Louisville,KY,40245,1960,JEFFERSON,SAVEASTEP,447110,4,Food Mart
RAINBOW BLOSSOM 5,-85.560249,38.299324,3608 Springhurst Blvd,NA,Louisville,KY,40241,4142,JEFFERSON,RAINBOW BLOSSOM,445110,1,Grocery
African Foodway,-85.78286,38.177788,4314 Taylor Blvd,NA,Louisville,KY,40215,2332,JEFFERSON,AFRICAN FOODWAY,445200,5,Specialized Lines of Food
BUTCHERS BEST,-85.617393,38.342754,9521 US HIGHWAY 42,NA,Prospect,KY,40059,NA,JEFFERSON,BUTCHERS BEST,445120,3,Convenience Store
Family Dollar Store 750,-85.797432,38.273693,3022 Portland Ave,NA,Louisville,KY,40212,1138,JEFFERSON,FAMILY DOLLAR STORE,445120,3,Convenience Store
Family Dollar Store 912,-85.804001,38.249786,3115 W Broadway,NA,Louisville,KY,40211,1434,JEFFERSON,FAMILY DOLLAR STORE,445120,3,Convenience Store
Family Dollar Stoer 926,-85.796112,38.214317,2503 Dixie Hwy,NA,Louisville,KY,40216,5201,JEFFERSON,FAMILY DOLLAR STOER,445120,3,Convenience Store
Family Dollar Store 928,-85.780693,38.202717,3277 Taylor Blvd,NA,Louisville,KY,40215,2649,JEFFERSON,FAMILY DOLLAR STORE,445120,3,Convenience Store
Family Dollar Store 957,-85.682915,38.168728,4936 Poplar Level Rd,NA,Louisville,KY,40219,1128,JEFFERSON,FAMILY DOLLAR STORE,445120,3,Convenience Store
Thorntons 157,-85.57798,38.225578,1335 S Hurstbourne Pkwy,NA,Louisville,KY,40222,7112,JEFFERSON,THORNTONS,445120,3,Convenience Store
Family Dollar Store 1670,-85.75769,38.105755,503 Fairdale Rd,NA,Fairdale,KY,40118,9786,JEFFERSON,FAMILY DOLLAR STORE,445120,3,Convenience Store
Family Dollar Store 2117,-85.768188,38.170971,5312 S 3rd St,NA,Louisville,KY,40214,2612,JEFFERSON,FAMILY DOLLAR STORE,445120,3,Convenience Store
Family Dollar Store 3185,-85.624336,38.199013,3417 Breckenridge Ln,NA,Louisville,KY,40220,3101,JEFFERSON,FAMILY DOLLAR STORE,445120,3,Convenience Store
Family Dollar Store 1031,-85.834259,38.199486,3214 Hartlage Ct,NA,Louisville,KY,40216,4426,JEFFERSON,FAMILY DOLLAR STORE,445120,3,Convenience Store
Family Dollar Store 4710,-85.692894,38.149475,7100 Preston Hwy,NA,Louisville,KY,40219,2730,JEFFERSON,FAMILY DOLLAR STORE,445120,3,Convenience Store
Family Dollar Store 4618,-85.656578,38.138927,5615 Outer Loop,NA,Louisville,KY,40219,4153,JEFFERSON,FAMILY DOLLAR STORE,445120,3,Convenience Store
Family Dollar Store 1351,-85.743034,38.21423,790 Eastern Pkwy,NA,Louisville,KY,40217,1924,JEFFERSON,FAMILY DOLLAR STORE,445120,3,Convenience Store
Family Dollar Store 6820,-85.783676,38.182125,4126 Taylor Blvd,NA,Louisville,KY,40215,2342,JEFFERSON,FAMILY DOLLAR STORE,445120,3,Convenience Store
Family Dollar Store 4110,-85.764725,38.16032,6621 Southside Dr,NA,Louisville,KY,40214,2823,JEFFERSON,FAMILY DOLLAR STORE,445120,3,Convenience Store
Family Dollar Store 1434,-85.761566,38.235168,431 W Oak St,NA,Louisville,KY,40203,3001,JEFFERSON,FAMILY DOLLAR STORE,445120,3,Convenience Store
Family Dollar Store 2087,-85.773956,38.255737,1419 W Jefferson St,NA,Louisville,KY,40203,1731,JEFFERSON,FAMILY DOLLAR STORE,445120,3,Convenience Store
Family Dollar 6256,-85.710144,38.259579,1961 Brownsboro Rd,Ste 7,Louisville,KY,40206,2177,JEFFERSON,FAMILY DOLLAR,445120,3,Convenience Store
AAA Food Mart,-85.582863,38.207348,9410 Taylorsville Rd,NA,Louisville,KY,40299,2733,JEFFERSON,AAA FOOD MART,447110,4,Food Mart
Family Dollar Store 3575,-85.604103,38.168232,5316 Bardstown Rd,NA,Louisville,KY,40291,1931,JEFFERSON,FAMILY DOLLAR STORE,445120,3,Convenience Store
Target Store T-1513,-85.678604000000007,38.14872,7311 Jefferson Blvd,NA,Louisville,KY,40219,6178,JEFFERSON,TARGET STORE T,445110,1,Grocery
Tienda Mexicana Guanajuato,-85.569115,38.27092,9901 La Grange Rd,Ste H,Louisville,KY,40223,1126,JEFFERSON,TIENDA MEXICANA GUANAJUATO,445200,5,Specialized Lines of Food
Stop & Go Food Mart #3,-85.765297,38.235455,700 W Oak St,NA,Louisville,KY,40203,3128,JEFFERSON,STOP  GO FOOD MART,447110,4,Food Mart
Dollar Tree 3329,-85.775078,38.144634,5532 New Cut Rd,NA,Louisville,KY,40214,4330,JEFFERSON,DOLLAR TREE,445120,3,Convenience Store
Dollar Tree 3328,-85.836838,38.150749,6801 Dixie Hwy,Ste 127,Louisville,KY,40258,3951,JEFFERSON,DOLLAR TREE,445120,3,Convenience Store
La Sierra Tarasca LLC,-85.659729,38.154972,6501 Shepherdsville Rd,Ste 101,Louisville,KY,40228,1041,JEFFERSON,LA SIERRA TARASCA LLC,445200,5,Specialized Lines of Food
CVS PHARMACY 6205,-85.559784,38.245064,10490 Shelbyville Rd,NA,Louisville,KY,40223,3120,JEFFERSON,CVS PHARMACY,445120,3,Convenience Store
CVS PHARMACY 6217,-85.579185,38.205029,9575 Taylorsville Rd,NA,Louisville,KY,40299,2734,JEFFERSON,CVS PHARMACY,445120,3,Convenience Store
The Latin Food Bakery,-85.656891,38.138973,5607 Outer Loop,NA,Louisville,KY,40219,4153,JEFFERSON,THE LATIN FOOD BAKERY,445200,5,Specialized Lines of Food
Speedway 9358,-85.66655,38.087463,5400 Antle Dr,NA,Louisville,KY,40229,2934,JEFFERSON,SPEEDWAY,445120,3,Convenience Store
Speedway 9511,-85.871887,38.145092,7430 Terry Rd,NA,Louisville,KY,40258,2976,JEFFERSON,SPEEDWAY,445120,3,Convenience Store
Speedway 9624,-85.659988,38.148254,7002 Shepherdsville Rd,NA,Louisville,KY,40219,2216,JEFFERSON,SPEEDWAY,445120,3,Convenience Store
Speedway 9705,-85.682793,38.131439,8325 Preston Hwy,NA,Louisville,KY,40219,5309,JEFFERSON,SPEEDWAY,445120,3,Convenience Store
Speedway 9783,-85.669235,38.137642,4900 Outer Loop,NA,Louisville,KY,40219,4052,JEFFERSON,SPEEDWAY,445120,3,Convenience Store
Speedway 9636,-85.8834,38.078968,12201 Dixie Hwy,NA,Louisville,KY,40272,4814,JEFFERSON,SPEEDWAY,445120,3,Convenience Store
Happy Food Mart,-85.821854,38.239864,1201 Cecil Ave,NA,Louisville,KY,40211,2416,JEFFERSON,HAPPY FOOD MART,447110,4,Food Mart
Target Store T-2473,-85.642036,38.259804,4174 Westport Rd,NA,Louisville,KY,40207,2784,JEFFERSON,TARGET STORE T,445110,1,Grocery
Target Store T-2728,-85.511665,38.242851,12975 Shelbyville Rd,Ste 100,Louisville,KY,40243,2425,JEFFERSON,TARGET STORE T,445110,1,Grocery
Dollar Tree 861,-85.683838,38.13847,4241 Outer Loop,NA,Louisville,KY,40219,3850,JEFFERSON,DOLLAR TREE,445120,3,Convenience Store
Walgreens 3631,-85.628456,38.28648,2420 Lime Kiln Ln,NA,Louisville,KY,40222,NA,JEFFERSON,WALGREENS,447110,4,Food Mart
Walgreens 3631,-85.628456,38.28648,2420 Lime Kiln Ln,NA,Louisville,KY,40222,NA,JEFFERSON,WALGREENS,445120,3,Convenience Store
Walgreens 4309,-85.571548,38.287853,9702 Westport Rd,NA,Louisville,KY,40241,2138,JEFFERSON,WALGREENS,447110,4,Food Mart
Walgreens 4309,-85.571548,38.287853,9702 Westport Rd,NA,Louisville,KY,40241,2138,JEFFERSON,WALGREENS,445120,3,Convenience Store
Walgreens 6171,-85.621796,38.338543,5900 Timber Ridge Dr,NA,Prospect,KY,40059,8131,JEFFERSON,WALGREENS,447110,4,Food Mart
Walgreens 6171,-85.621796,38.338543,5900 Timber Ridge Dr,NA,Prospect,KY,40059,8131,JEFFERSON,WALGREENS,445120,3,Convenience Store
Walgreens 7064,-85.577621,38.246498,9409 Shelbyville Rd,Ste 101,Louisville,KY,40222,5157,JEFFERSON,WALGREENS,447110,4,Food Mart
Walgreens 7064,-85.577621,38.246498,9409 Shelbyville Rd,Ste 101,Louisville,KY,40222,5157,JEFFERSON,WALGREENS,445120,3,Convenience Store
Walgreens 7315,-85.495537,38.240116,13807 English Villa Dr,NA,Louisville,KY,40245,3994,JEFFERSON,WALGREENS,447110,4,Food Mart
Walgreens 7315,-85.495537,38.240116,13807 English Villa Dr,NA,Louisville,KY,40245,3994,JEFFERSON,WALGREENS,445120,3,Convenience Store
Walgreens 7643,-85.566711,38.313038,9801 Brownsboro Rd,NA,Louisville,KY,40241,1125,JEFFERSON,WALGREENS,447110,4,Food Mart
Walgreens 7643,-85.566711,38.313038,9801 Brownsboro Rd,NA,Louisville,KY,40241,1125,JEFFERSON,WALGREENS,445120,3,Convenience Store
Walgreens 10151,-85.661964,38.253391,3700 Frankfort Ave,NA,Louisville,KY,40207,2557,JEFFERSON,WALGREENS,447110,4,Food Mart
Walgreens 10151,-85.661964,38.253391,3700 Frankfort Ave,NA,Louisville,KY,40207,2557,JEFFERSON,WALGREENS,445120,3,Convenience Store
Walgreens 4586,-85.616058,38.138817,7914 Fegenbush Ln,NA,Louisville,KY,40228,1712,JEFFERSON,WALGREENS,447110,4,Food Mart
Walgreens 4586,-85.616058,38.138817,7914 Fegenbush Ln,NA,Louisville,KY,40228,1712,JEFFERSON,WALGREENS,445120,3,Convenience Store
Walgreens 5813,-85.666245,38.088177,11930 Standiford Plaza Dr,NA,Louisville,KY,40229,5901,JEFFERSON,WALGREENS,447110,4,Food Mart
Walgreens 5813,-85.666245,38.088177,11930 Standiford Plaza Dr,NA,Louisville,KY,40229,5901,JEFFERSON,WALGREENS,445120,3,Convenience Store
Costco Wholesale 0634,-85.573563,38.31498,5020 Norton Healthcare Blvd,NA,Louisville,KY,40241,2835,JEFFERSON,COSTCO WHOLESALE,452910,2,Super Center and Club Store
Circle K 2723312,-85.484718,38.190891,14000 Taylorsville Rd,NA,Louisville,KY,40299,4794,JEFFERSON,CIRCLE K,445120,3,Convenience Store
SHORTY'S FOOD MART 3,-85.793877,38.219856,2133 Dixie Hwy,NA,Louisville,KY,40210,2241,JEFFERSON,SHORTYS FOOD MART,447110,4,Food Mart
CVS PHARMACY 2337,-85.718338,38.211178,3229 Poplar Level Rd,NA,Louisville,KY,40213,1030,JEFFERSON,CVS PHARMACY,445120,3,Convenience Store
CVS PHARMACY 5866,-85.493103,38.240314,13900 Shelbyville Rd,NA,Louisville,KY,40245,3906,JEFFERSON,CVS PHARMACY,445120,3,Convenience Store
CVS PHARMACY 6211,-85.659828,38.252117,3721 Lexington Rd,NA,Louisville,KY,40207,3023,JEFFERSON,CVS PHARMACY,445120,3,Convenience Store
CVS PHARMACY 6216,-85.590843,38.157433,6109 Bardstown Rd,NA,Louisville,KY,40291,3001,JEFFERSON,CVS PHARMACY,445120,3,Convenience Store
Walgreens 11665,-85.681145,38.138149,4310 Outer Loop,NA,Okolona,KY,40219,3853,JEFFERSON,WALGREENS,447110,4,Food Mart
Walgreens 11665,-85.681145,38.138149,4310 Outer Loop,NA,Okolona,KY,40219,3853,JEFFERSON,WALGREENS,445120,3,Convenience Store
Walgreens 11664,-85.861542,38.178326,4926 Cane Run Rd,NA,Louisville,KY,40216,1149,JEFFERSON,WALGREENS,447110,4,Food Mart
Walgreens 11664,-85.861542,38.178326,4926 Cane Run Rd,NA,Louisville,KY,40216,1149,JEFFERSON,WALGREENS,445120,3,Convenience Store
Walgreens 10560,-85.587563,38.150524,6620 Bardstown Rd,NA,Louisville,KY,40291,3045,JEFFERSON,WALGREENS,447110,4,Food Mart
Walgreens 10560,-85.587563,38.150524,6620 Bardstown Rd,NA,Louisville,KY,40291,3045,JEFFERSON,WALGREENS,445120,3,Convenience Store
Jay Food Mart I,-85.572968,38.172302,5050 Billtown Rd,NA,Louisville,KY,40299,1223,JEFFERSON,JAY FOOD MART I,447110,4,Food Mart
GRAY STREET FARMERS MARKET,-85.745758,38.24638,485 E Gray St,NA,Louisville,KY,40202,1741,JEFFERSON,GRAY STREET FARMERS MARKET,6,6,Farmer's Market
HURSTBOURNE PKY FOOD CENTER,-85.57962,38.22192,1620 S Hurstbourne Pkwy,NA,Louisville,KY,40220,1693,JEFFERSON,HURSTBOURNE PKY FOOD CENTER,445120,3,Convenience Store
Circle K 2723238,-85.669907,38.091011,5035 Mud Ln,NA,Louisville,KY,40229,2870,JEFFERSON,CIRCLE K,445120,3,Convenience Store
Circle K 2723311,-85.675545,38.216423,2911 Bardstown Rd,NA,Louisville,KY,40205,3017,JEFFERSON,CIRCLE K,445120,3,Convenience Store
Circle K 272114,-85.724014,38.186131,4301 Preston Hwy,NA,Louisville,KY,40213,2031,JEFFERSON,CIRCLE K,445120,3,Convenience Store
FRESH STOP at Redeemer Lutheran Church,-85.812019,38.254913,3640 River Park Dr,NA,Louisville,KY,40211,2919,JEFFERSON,FRESH STOP AT REDEEMER LUTHERAN CHURCH,5,NA,NA
Papa Murphy's,-85.586555,38.148296,6756 Bardstown Rd,NA,Louisville,KY,40291,3048,JEFFERSON,PAPA MURPHYS,445120,3,Convenience Store
Dollar General 12215,-85.764595,38.210365,2701 S 4th St,NA,Louisville,KY,40208,1520,JEFFERSON,DOLLAR GENERAL,447110,4,Food Mart
Dollar General 12215,-85.764595,38.210365,2701 S 4th St,NA,Louisville,KY,40208,1520,JEFFERSON,DOLLAR GENERAL,445120,3,Convenience Store
Friendly Mart,-85.604492,38.193802,3741 S Hurstbourne Pkwy,NA,Louisville,KY,40299,1366,JEFFERSON,FRIENDLY MART,447110,4,Food Mart
Circle K 2723315,-85.776047,38.12677,5929 New Cut Road,NA,Louisville,KY,40214,NA,JEFFERSON,CIRCLE K,445120,3,Convenience Store
Speedway 9514,-85.629433,38.219181,2965 Breckenridge Ln,NA,Louisville,KY,40220,1463,JEFFERSON,SPEEDWAY,445120,3,Convenience Store
Sunrise Market,-85.370476,38.104984,5469 Taylorsville Rd,NA,Fisherville,KY,40023,8423,JEFFERSON,SUNRISE MARKET,6,6,Farmer's Market
Big A Farmers Market,-85.811005,38.221615,2901 Commerce Center Place,NA,Louisville,KY,40211,NA,JEFFERSON,BIG A FARMERS MARKET,6,6,Farmer's Market
Dollar General 12410,-85.62706,38.220009,3943 Taylorsville Rd,NA,Louisville,KY,40220,1455,JEFFERSON,DOLLAR GENERAL,447110,4,Food Mart
Dollar General 12410,-85.62706,38.220009,3943 Taylorsville Rd,NA,Louisville,KY,40220,1455,JEFFERSON,DOLLAR GENERAL,445120,3,Convenience Store
Circle K 2723317,-85.589653,38.155079,6325 Bardstown Rd,NA,Louisville,KY,40291,3038,JEFFERSON,CIRCLE K,445120,3,Convenience Store
Food Market and S Floyd Tobacco,-85.75209,38.231556,1271 S Floyd St,NA,Louisville,KY,40203,2761,JEFFERSON,FOOD MARKET AND S FLOYD TOBACCO,447110,4,Food Mart
Deal Master,-85.879173,38.070019,6115 Blevins Gap Rd,NA,Louisville,KY,40272,1719,JEFFERSON,DEAL MASTER,447110,4,Food Mart
Circle K 272110,-85.713463,38.157242,3001 Fern Valley Rd,NA,Louisville,KY,40213,3521,JEFFERSON,CIRCLE K,445120,3,Convenience Store
Circle K 27275,-85.75145,38.222816,1630 Arthur St,NA,Louisville,KY,40208,2727,JEFFERSON,CIRCLE K,445120,3,Convenience Store
CVS PHARMACY 4779,-85.637199,38.293407,2311 Lime Klin Rd,NA,Louisville,KY,40222,NA,JEFFERSON,CVS PHARMACY,445120,3,Convenience Store
Duramart,-85.768791,38.227348,1480 S 7th St,NA,Louisville,KY,40208,2257,JEFFERSON,DURAMART,447110,4,Food Mart
Dollar General 12576,-85.843452,38.137218,7850 Dixie Hwy,NA,Louisville,KY,40258,1364,JEFFERSON,DOLLAR GENERAL,447110,4,Food Mart
Dollar General 12576,-85.843452,38.137218,7850 Dixie Hwy,NA,Louisville,KY,40258,1364,JEFFERSON,DOLLAR GENERAL,445120,3,Convenience Store
Dollar General 11904,-85.797272,38.211418,2701 Dixie Hwy,NA,Louisville,KY,40216,5205,JEFFERSON,DOLLAR GENERAL,447110,4,Food Mart
Dollar General 11904,-85.797272,38.211418,2701 Dixie Hwy,NA,Louisville,KY,40216,5205,JEFFERSON,DOLLAR GENERAL,445120,3,Convenience Store
Dollar General 11864,-85.802841,38.249702,3036 W Broadway,NA,Louisville,KY,40211,1433,JEFFERSON,DOLLAR GENERAL,447110,4,Food Mart
Dollar General 11864,-85.802841,38.249702,3036 W Broadway,NA,Louisville,KY,40211,1433,JEFFERSON,DOLLAR GENERAL,445120,3,Convenience Store
Dollar General 11683,-85.810951,38.116562,8715 3rd Street Rd,NA,Louisville,KY,40272,2302,JEFFERSON,DOLLAR GENERAL,447110,4,Food Mart
Dollar General 11683,-85.810951,38.116562,8715 3rd Street Rd,NA,Louisville,KY,40272,2302,JEFFERSON,DOLLAR GENERAL,445120,3,Convenience Store
Five Star Halal Market LLC,-85.767372,38.181683,310 W Woodlawn Ave,NA,Louisville,KY,40214,1924,JEFFERSON,FIVE STAR HALAL MARKET LLC,445200,5,Specialized Lines of Food
Circle K 272112,-85.578094,38.225887,1330 S Hurstbourne Pkwy,NA,Louisville,KY,40222,5762,JEFFERSON,CIRCLE K,445120,3,Convenience Store
Circle K 2723325,-85.834953,38.115185,9737 3rd Street Rd,NA,Louisville,KY,40272,2603,JEFFERSON,CIRCLE K,445120,3,Convenience Store
DONGAR FOOD MART & DELI 534,-85.720032,38.250507,1401 Lexington Rd,NA,Louisville,KY,40206,1928,JEFFERSON,DONGAR FOOD MART  DELI,447110,4,Food Mart
Dixie Food Mart,-85.802986,38.199787,3512 Dixie Hwy,NA,Louisville,KY,40216,5018,JEFFERSON,DIXIE FOOD MART,447110,4,Food Mart
Thorntons Inc 159,-85.567009,38.311638,4740 Chamberlain Ln,NA,Louisville,KY,40241,1106,JEFFERSON,THORNTONS INC,445120,3,Convenience Store
Sunshine Grocery,-85.754036,38.234497,125 E Oak St,NA,Louisville,KY,40203,2703,JEFFERSON,SUNSHINE GROCERY,445110,1,Grocery
Save-A-Lot 792,-85.741882,38.230587,1311 S Shelby St,NA,Louisville,KY,40217,1104,JEFFERSON,SAVEALOT,445110,1,Grocery
MIDWEST PETROLEUM,-85.810226,38.224453,3300 Algonquin Pkwy,NA,Louisville,KY,40211,1911,JEFFERSON,MIDWEST PETROLEUM,445120,3,Convenience Store
Shorty's Food Mart 4,-85.780426,38.248817,1711 W Broadway,NA,Louisville,KY,40203,3519,JEFFERSON,SHORTYS FOOD MART,447110,4,Food Mart
ANAR Food Mart,-85.59008,38.280624,8730 Westport Rd,NA,Louisville,KY,40242,3152,JEFFERSON,ANAR FOOD MART,447110,4,Food Mart
Thorntons 158,-85.634636,38.281246,4900 Brownsboro Rd,NA,Louisville,KY,40222,3415,JEFFERSON,THORNTONS,445120,3,Convenience Store
STOP N GO FOOD MART,-85.687256,38.170368,5401 Indian Oaks Cir,NA,Louisville,KY,40219,1100,JEFFERSON,STOP N GO FOOD MART,447110,4,Food Mart
Family Dollar Store 8426,-85.828835,38.16777,5107 Dixie Hwy,NA,Louisville,KY,40216,1701,JEFFERSON,FAMILY DOLLAR STORE,445120,3,Convenience Store
Speedway 5457,-85.698875,38.183388,4565 Poplar Level Rd,NA,Louisville,KY,40213,2161,JEFFERSON,SPEEDWAY,445120,3,Convenience Store
Speedway 9655,-85.833649,38.158016,5339 Dixie Hwy,NA,Louisville,KY,40216,1557,JEFFERSON,SPEEDWAY,445120,3,Convenience Store
Speedway 9662,-85.750999,38.194008,4300 Crittenden Dr,NA,Louisville,KY,40209,1604,JEFFERSON,SPEEDWAY,445120,3,Convenience Store
Speedway 9686,-85.764725,38.158932,6821 Southside Dr,NA,Louisville,KY,40214,2856,JEFFERSON,SPEEDWAY,445120,3,Convenience Store
Speedway 9709 9709,-85.707825,38.197529,4239 Poplar Level Rd,NA,Louisville,KY,40213,1527,JEFFERSON,SPEEDWAY,445120,3,Convenience Store
Garden Gate Fruit Market,-85.626472,38.181858,4411 Breckenridge Ln,NA,Louisville,KY,40218,4009,JEFFERSON,GARDEN GATE FRUIT MARKET,447110,4,Food Mart
Dongar Food Mart & Deli  0530,-85.558113,38.244923,10600 Shelbyville Rd,NA,Louisville,KY,40223,3102,JEFFERSON,DONGAR FOOD MART  DELI,447110,4,Food Mart
Stop N Go Food Mart 4,-85.680695,38.165958,5015 Poplar Level Rd,NA,Louisville,KY,40219,1119,JEFFERSON,STOP N GO FOOD MART,447110,4,Food Mart
Macs Food Mart,-85.803673,38.231815,1500 Hemlock St,NA,Louisville,KY,40211,1720,JEFFERSON,MACS FOOD MART,447110,4,Food Mart
Quick Food Mart,-85.888008,38.139599,7031 Global Dr,NA,Louisville,KY,40258,1977,JEFFERSON,QUICK FOOD MART,447110,4,Food Mart
BP Mini Mart Inc.,-85.798126,38.196819,1871 Berry Blvd,NA,Louisville,KY,40215,1403,JEFFERSON,BP MINI MART INC,445120,3,Convenience Store
Farmboy Foodmart,-85.786789,38.237373,1800 W Oak St,NA,Louisville,KY,40210,1418,JEFFERSON,FARMBOY FOODMART,447110,4,Food Mart
Super Mercado Puebla Llc,-85.569016,38.197601,10119 Taylorsville Rd,NA,Louisville,KY,40299,3649,JEFFERSON,SUPER MERCADO PUEBLA LLC,445200,5,Specialized Lines of Food
DEALS 4601,-85.799011,38.249683,2815 W Broadway,NA,Louisville,KY,40211,1218,JEFFERSON,DEALS,445120,3,Convenience Store
Lickety Split Food Mart,-85.775848,38.148071,5440 New Cut Rd,NA,Louisville,KY,40214,4253,JEFFERSON,LICKETY SPLIT FOOD MART,447110,4,Food Mart
Trader Joes 625,-85.629784,38.250793,4600 Shelbyville Rd,Ste 112,Louisville,KY,40207,3358,JEFFERSON,TRADER JOES,445110,1,Grocery
Trader Joes 628,-85.629784,38.250793,4600 Shelbyville Rd,Ste 111,Louisville,KY,40207,3358,JEFFERSON,TRADER JOES,445110,1,Grocery
Friendly Stop Food Mart,-85.842796,38.195362,4502 Cane Run Rd,NA,Louisville,KY,40216,3422,JEFFERSON,FRIENDLY STOP FOOD MART,447110,4,Food Mart
Dongar Food Mart 532,-85.711479,38.224159,1735 Newburg Rd,NA,Louisville,KY,40205,1225,JEFFERSON,DONGAR FOOD MART,447110,4,Food Mart
Miami Food Market 2,-85.768097,38.170883,5307 S 3rd St,NA,Louisville,KY,40214,2611,JEFFERSON,MIAMI FOOD MARKET,447110,4,Food Mart
La Bella Airosa,-85.684738,38.134674,8106 Preston Hwy,NA,Louisville,KY,40219,3806,JEFFERSON,LA BELLA AIROSA,445200,5,Specialized Lines of Food
ALDI 038,-85.731171,38.19693,3442 Preston Hwy,NA,Louisville,KY,40213,1643,JEFFERSON,ALDI,445110,1,Grocery
Thornton's 160,-85.677231,38.11787,9200 Preston Hwy,NA,Louisville,KY,40229,1107,JEFFERSON,THORNTONS,445120,3,Convenience Store
Fivestar 5301,-85.896782,38.119492,9501 Cane Run Rd,NA,Louisville,KY,40258,1857,JEFFERSON,FIVESTAR,445120,3,Convenience Store
Speedway 9554,-85.575935,38.246296,9416 Shelbyville Rd,NA,Louisville,KY,40222,5116,JEFFERSON,SPEEDWAY,445120,3,Convenience Store
Speedway 9643,-85.530586,38.248329,12102 U S 60,NA,Middletown,KY,40243,0,JEFFERSON,SPEEDWAY,445120,3,Convenience Store
Speedway 9685,-85.600746,38.166046,5510 Bardstown Rd,NA,Louisville,KY,40291,1910,JEFFERSON,SPEEDWAY,445120,3,Convenience Store
Speedway 9710,-85.614349,38.137798,7933 Fegenbush Ln,NA,Louisville,KY,40228,1753,JEFFERSON,SPEEDWAY,445120,3,Convenience Store
Speedway 9712,-85.597839,38.218277,4547 Taylorsville Rd,NA,Louisville,KY,40220,3527,JEFFERSON,SPEEDWAY,445120,3,Convenience Store
Speedway 9315,-85.541069,38.299557,11301 Westport Rd,NA,Louisville,KY,40241,3807,JEFFERSON,SPEEDWAY,445120,3,Convenience Store
Speedway 9373,-85.574982,38.30724,9500 Brownsboro Rd,NA,Louisville,KY,40241,1120,JEFFERSON,SPEEDWAY,445120,3,Convenience Store
Papa Murphy's 039,-85.835739,38.153389,6661 Dixie Hwy,Ste 3b,Louisville,KY,40258,3950,JEFFERSON,PAPA MURPHYS,445120,3,Convenience Store
La Tropical,-85.767639,38.181801,319 W Woodlawn Ave,NA,Louisville,KY,40214,1923,JEFFERSON,LA TROPICAL,445200,5,Specialized Lines of Food
Dollar General 13244,-85.777901,38.257587,1631 W Market St,NA,Louisville,KY,40203,1335,JEFFERSON,DOLLAR GENERAL,447110,4,Food Mart
Dollar General 13244,-85.777901,38.257587,1631 W Market St,NA,Louisville,KY,40203,1335,JEFFERSON,DOLLAR GENERAL,445120,3,Convenience Store
Fivestar 5145,-85.540787,38.217014,11550 Bluegrass Pkwy,NA,Louisville,KY,40299,2350,JEFFERSON,FIVESTAR,445120,3,Convenience Store
Family Dollar Store 8914,-85.869041,38.144581,6312 Greenwood Rd,NA,Louisville,KY,40258,2504,JEFFERSON,FAMILY DOLLAR STORE,445120,3,Convenience Store
Family Dollar Store 8696,-85.80777,38.225971,3036 Wilson Ave,NA,Louisville,KY,40211,1970,JEFFERSON,FAMILY DOLLAR STORE,445120,3,Convenience Store
Speedway 8132,-85.703064,38.258465,2300 Brownsboro Rd,NA,Louisville,KY,40206,2155,JEFFERSON,SPEEDWAY,445120,3,Convenience Store
Circle K 2723330,-85.689568,38.118355,9100 Blue Lick Rd,NA,Louisville,KY,40219,4962,JEFFERSON,CIRCLE K,445120,3,Convenience Store
Smyrna Valero,-85.642242,38.123158,6403 E Manslick Rd,NA,Louisville,KY,40228,2303,JEFFERSON,SMYRNA VALERO,445120,3,Convenience Store
Speedway 9515 9515,-85.668793,38.222855,2720 Taylorsville Rd,NA,Louisville,KY,40205,2338,JEFFERSON,SPEEDWAY,445120,3,Convenience Store
Speedway 9518 9518,-85.686127,38.199703,4308 Bishop Ln,NA,Louisville,KY,40218,4518,JEFFERSON,SPEEDWAY,445120,3,Convenience Store
Phoenix Hill Nulu Farmer's Market,-85.733757,38.251339,1007 E Jefferson St,NA,Louisville,KY,40206,1621,JEFFERSON,PHOENIX HILL NULU FARMERS MARKET,6,6,Farmer's Market
Family Dollar Store 9071,-85.636665,38.186638,4335 Bardstown Rd,NA,Louisville,KY,40218,3233,JEFFERSON,FAMILY DOLLAR STORE,445120,3,Convenience Store
Speedway 5485,-85.646858,38.257484,4150 Westport Rd,NA,Louisville,KY,40207,2723,JEFFERSON,SPEEDWAY,445120,3,Convenience Store
Speedway 9669,-85.539177,38.215023,1830 Blankenbaker Pkwy,NA,Louisville,KY,40299,2402,JEFFERSON,SPEEDWAY,445120,3,Convenience Store
Family Dollar Store 8824,-85.886452,38.062435,13313 Dixie Hwy,NA,Louisville,KY,40272,4748,JEFFERSON,FAMILY DOLLAR STORE,445120,3,Convenience Store
Dollar Tree 5046,-85.868355,38.104889,10309 Dixie Hwy,NA,Louisville,KY,40272,3951,JEFFERSON,DOLLAR TREE,445120,3,Convenience Store
Sissy Liquor & Grocery,-85.76841,38.196842,3947 S 5th St,NA,Louisville,KY,40214,1658,JEFFERSON,SISSY LIQUOR  GROCERY,445110,1,Grocery
The Fresh Market 035,-85.560349,38.245087,10480 Shelbyville Rd,NA,Louisville,KY,40223,3120,JEFFERSON,THE FRESH MARKET,445110,1,Grocery
The Fresh Market 097,-85.638054,38.278557,1805 Rudy Ln,NA,Louisville,KY,40207,1245,JEFFERSON,THE FRESH MARKET,445110,1,Grocery
Super USA 5,-85.775879,38.127254,5901 New Cut Rd,NA,Louisville,KY,40214,5609,JEFFERSON,SUPER USA,445120,3,Convenience Store
Anita & Son Food Mart Inc,-85.590813,38.157196,6102 Bardstown Rd,NA,Louisville,KY,40291,3002,JEFFERSON,ANITA  SON FOOD MART INC,447110,4,Food Mart
Singh Food Mart,-85.68544,38.200535,3301 Newburg Rd,NA,Louisville,KY,40218,2426,JEFFERSON,SINGH FOOD MART,447110,4,Food Mart
Walgreens 15183,-85.809662,38.249924,3410 W Broadway,NA,Louisville,KY,40211,2824,JEFFERSON,WALGREENS,447110,4,Food Mart
Walgreens 15183,-85.809662,38.249924,3410 W Broadway,NA,Louisville,KY,40211,2824,JEFFERSON,WALGREENS,445120,3,Convenience Store
La Caribena,-85.692894,38.149475,7100 Preston Hwy,Ste 104a,Louisville,KY,40219,2730,JEFFERSON,LA CARIBENA,445200,5,Specialized Lines of Food
Papa Murphy's Pizza 001,-85.669968,38.091145,5016 Mud Lane,NA,Louisville,KY,40229,NA,JEFFERSON,PAPA MURPHYS PIZZA,445120,3,Convenience Store
Airport Shell,-85.750908,38.193161,4309 Crittenden Dr,NA,Louisville,KY,40209,1603,JEFFERSON,AIRPORT SHELL,445120,3,Convenience Store
Rose's 530,-85.836235,38.198753,3220 Crums Ln,NA,Louisville,KY,40216,4410,JEFFERSON,ROSES,445120,3,Convenience Store
Family Dollar Store 9199,-85.768715,38.210808,611 Winkler Ave,NA,Louisville,KY,40208,1553,JEFFERSON,FAMILY DOLLAR STORE,445120,3,Convenience Store
Super Usa / Marathon,-85.67231,38.254173,3320 Frankfort Ave,NA,Louisville,KY,40206,2701,JEFFERSON,SUPER USA  MARATHON,445120,3,Convenience Store
Al's Smoke Shop,-85.865059,38.107098,5427 Valley Station Rd,NA,Louisville,KY,40272,3960,JEFFERSON,ALS SMOKE SHOP,445120,3,Convenience Store
Rhythm Food Mart no,-85.844513,38.117718000000004,801 Valley College Dr,NA,Louisville,KY,40272,2772,JEFFERSON,RHYTHM FOOD MART NO,447110,4,Food Mart
Dollar Tree 5192,-85.64608,38.252167,4121 Shelbyville Rd,NA,Louisville,KY,40207,NA,JEFFERSON,DOLLAR TREE,445120,3,Convenience Store
Third Smoke Shop,-85.765045,38.198311,3945 S 3rd St,NA,Louisville,KY,40214,1601,JEFFERSON,THIRD SMOKE SHOP,445120,3,Convenience Store
Wellington Fresh Stop,-85.860977,38.182102,4800 Kaufman Ln,NA,Louisville,KY,40216,1152,JEFFERSON,WELLINGTON FRESH STOP,445200,5,Specialized Lines of Food
Speedy Mart 39,-85.826431,38.195084,2720 Crums Ln,NA,Louisville,KY,40216,3633,JEFFERSON,SPEEDY MART,445120,3,Convenience Store
Puritens Mart,-85.760544,38.234055,1244 South 4th Street,NA,Louisville,KY,40203,3051,JEFFERSON,PURITENS MART,445120,3,Convenience Store
Grab N Go 5,-85.638939,38.232761000000004,1001 Breckenridge Lane,NA,Louisville,KY,40207,NA,JEFFERSON,GRAB N GO,445120,3,Convenience Store
Dollar Tree 5138,-85.560051,38.299706,3600 Springhurst Blvd,NA,Louisville,KY,40241,4142,JEFFERSON,DOLLAR TREE,445120,3,Convenience Store
Mauri Mart,-85.774956,38.195728,901 Denmark St,NA,Louisville,KY,40215,2908,JEFFERSON,MAURI MART,445120,3,Convenience Store
Family Dollar 10271,-85.685341,38.135857,8010 Preston Hwy,NA,Louisville,KY,40219,3804,JEFFERSON,FAMILY DOLLAR,445120,3,Convenience Store
Super Usa 101,-85.68721,38.260136,2912 Brownsboro Rd,NA,Louisville,KY,40206,1404,JEFFERSON,SUPER USA,445120,3,Convenience Store
Nulu Edge Food Market,-85.743782,38.25098,528 E Liberty St,NA,Louisville,KY,40202,1108,JEFFERSON,NULU EDGE FOOD MARKET,445120,3,Convenience Store
Patel's Food Mart,-85.616081,38.252132,7401 New La Grange Rd,NA,Louisville,KY,40222,4813,JEFFERSON,PATELS FOOD MART,445120,3,Convenience Store
West End Foods LLC,-85.794121,38.255188,2533 W Muhammad Ali Blvd,NA,Louisville,KY,40212,1759,JEFFERSON,WEST END FOODS LLC,445120,3,Convenience Store
Mor's International Grocery 001,-85.651428,38.194447,3927 Bardstown Rd,NA,Louisville,KY,40218,2609,JEFFERSON,MORS INTERNATIONAL GROCERY,445200,5,Specialized Lines of Food
Grand Market,-85.791748,38.224979,1731 Dixie Hwy,NA,Louisville,KY,40210,2313,JEFFERSON,GRAND MARKET,445200,5,Specialized Lines of Food
Speedway 5043,-85.815483,38.181622,4417 Dixie Hwy,NA,Louisville,KY,40216,2821,JEFFERSON,SPEEDWAY,445120,3,Convenience Store
Price Less Foods 19,-85.624428,38.198879,3417 Breckinridge Ln,NA,Louisville,KY,40220,NA,JEFFERSON,PRICE LESS FOODS,445110,1,Grocery
Price Less Foods 18,-85.613647,38.135159,7813 Beulah Church Rd,NA,Louisville,KY,40228,NA,JEFFERSON,PRICE LESS FOODS,445110,1,Grocery
Speedway 9392,-85.604828,38.248718,8015 Shelbyville Rd,NA,Louisville,KY,40222,5417,JEFFERSON,SPEEDWAY,445120,3,Convenience Store
Bullitt Mart,-85.688698,38.078121,1291 Hillview Blvd,NA,Louisville,KY,40229,3064,JEFFERSON,BULLITT MART,445120,3,Convenience Store
Crossroads IGA 782,-85.49118,38.239532,14010 Shelbyville Rd,NA,Louisville,KY,40245,3908,JEFFERSON,CROSSROADS IGA,445110,1,Grocery
WALGREENS 15365,-85.604599,38.183674,8300 Watterson Trl,NA,Louisville,KY,40299,1173,JEFFERSON,WALGREENS,447110,4,Food Mart
WALGREENS 15365,-85.604599,38.183674,8300 Watterson Trl,NA,Louisville,KY,40299,1173,JEFFERSON,WALGREENS,445120,3,Convenience Store
Oriental Supermarket And Gift Shop,-85.711349,38.175632,1211 Gilmore Ln,NA,Louisville,KY,40213,2307,JEFFERSON,ORIENTAL SUPERMARKET AND GIFT SHOP,445120,3,Convenience Store
Papa Murphy's Take 'n' Bake Pizza K026,-85.57016,38.285423,2805 N Hurstbourne Pkwy,Ste 100,Louisville,KY,40223,NA,JEFFERSON,PAPA MURPHYS TAKE N BAKE PIZZA K,445120,3,Convenience Store
La Popular Llc,-85.783264,38.214489,2521 7th Street Rd,D,Louisville,KY,40208,1082,JEFFERSON,LA POPULAR LLC,445110,1,Grocery
Viethoa Supermarket,-85.692894,38.149475,7100 Preston Highway,NA,Louisville,KY,40219,NA,JEFFERSON,VIETHOA SUPERMARKET,445110,1,Grocery
Crown Smoke Shop & Chicken,-85.734627,38.202297,3210 Preston Hwy,NA,Louisville,KY,40213,1330,JEFFERSON,CROWN SMOKE SHOP  CHICKEN,445120,3,Convenience Store
La Esperanza Grocery LLC,-85.824219,38.173496,4761 Dixie Hwy,Ste 101,Louisville,KY,40216,2659,JEFFERSON,LA ESPERANZA GROCERY LLC,445200,5,Specialized Lines of Food
Abraha Food And Tabacco Mart,-85.756592,38.23695,1103 S 2nd St,NA,Louisville,KY,40203,2807,JEFFERSON,ABRAHA FOOD AND TABACCO MART,445120,3,Convenience Store
Scott's Food Mart,-85.796364,38.196686,1810 Berry Blvd,NA,Louisville,KY,40215,1404,JEFFERSON,SCOTTS FOOD MART,445110,1,Grocery
Brian's Deli,-85.757591,38.250305,531 S 4th St,NA,Louisville,KY,40202,2503,JEFFERSON,BRIANS DELI,445200,5,Specialized Lines of Food
Bardstown Rd. Save-a-Lot 24985,-85.597702,38.164047,5624 Bardstown Rd,NA,Louisville,KY,40291,1912,JEFFERSON,BARDSTOWN RD SAVEALOT,445110,1,Grocery
Louisville Grows Inc 1,-85.821098,38.270233,409 Northwestern Pkwy,NA,Louisville,KY,40212,2735,JEFFERSON,LOUISVILLE GROWS INC,445200,5,Specialized Lines of Food
The Hillebrand Market,-85.758759,38.2341,1235 S 3rd St.,NA,Louisville,KY,40203,NA,JEFFERSON,THE HILLEBRAND MARKET,445110,1,Grocery
West Market LLC,-85.806725,38.260883,3320 W Market St,NA,Louisville,KY,40212,2233,JEFFERSON,WEST MARKET LLC,445120,3,Convenience Store
Family Dollar 10270,-85.783699,38.266605,2124 Bank St,NA,Louisville,KY,40212,1209,JEFFERSON,FAMILY DOLLAR,445120,3,Convenience Store
The Grocery Outlet,-85.827469,38.176437,4741 Rockford Plz,NA,Louisville,KY,40216,2630,JEFFERSON,THE GROCERY OUTLET,445110,1,Grocery
Pita Bread LLC,-85.642487,38.189636,4162 Bardstown Rd,NA,Louisville,KY,40218,3245,JEFFERSON,PITA BREAD LLC,445200,5,Specialized Lines of Food
World Food Market Inc,-85.765244,38.245186,737 S 8th St,NA,Louisville,KY,40203,2022,JEFFERSON,WORLD FOOD MARKET INC,445200,5,Specialized Lines of Food
El Rey 1,-85.753906,38.139587,7600 National Tpke,NA,Louisville,KY,40214,4802,JEFFERSON,EL REY,445200,5,Specialized Lines of Food
Panaderia Y Tienda Guadalajara LLC,-85.684464,38.13829,4124 Outer Loop,NA,Louisville,KY,40219,3849,JEFFERSON,PANADERIA Y TIENDA GUADALAJARA LLC,445200,5,Specialized Lines of Food
Mapco Mart 7520,-85.604553,38.168625,5301 Bardstown Rd,NA,Louisville,KY,40291,1930,JEFFERSON,MAPCO MART,445120,3,Convenience Store
Speedway 9391,-85.752777,38.215237,2210 Arthur St,NA,Louisville,KY,40208,2733,JEFFERSON,SPEEDWAY,445120,3,Convenience Store
Price Less Foods 66,-85.873856,38.095768,10986 Dixie Hwy,NA,Louisville,KY,40272,4306,JEFFERSON,PRICE LESS FOODS,445110,1,Grocery
Five Points Food Mart,-85.611893,38.354828,10306 Us Highway 42,NA,Prospect,KY,40059,9381,JEFFERSON,FIVE POINTS FOOD MART,445120,3,Convenience Store
Five Points Food Mart,-85.59803,38.218254,4548 Taylorsville Rd,NA,Louisville,KY,40220,3528,JEFFERSON,FIVE POINTS FOOD MART,445120,3,Convenience Store
Dollar Tree 6526,-85.859329,38.180073,4856 Cane Run Rd,NA,Louisville,KY,40216,1919,JEFFERSON,DOLLAR TREE,445120,3,Convenience Store
LUCKYS MARKET 12,-85.579086,38.250977,200 N Hurstbourne Pkwy,NA,Louisville,KY,40222,5138,JEFFERSON,LUCKYS MARKET,445110,1,Grocery
Shively Food Mart,-85.800301,38.204105,3122 Dixie Hwy,NA,Louisville,KY,40216,5063,JEFFERSON,SHIVELY FOOD MART,445110,1,Grocery
"Ashbourne Enterprises, LLC",-85.64679,38.252163,4100 Shelbyville Rd,NA,Louisville,KY,40207,3296,JEFFERSON,ASHBOURNE ENTERPRISES LLC,445120,3,Convenience Store
Mapco 7529,-85.871742,38.099407,10642 Dixie Hwy,NA,Louisville,KY,40272,9998,JEFFERSON,MAPCO,445120,3,Convenience Store
Grabandgo,-85.854965000000007,38.183491,3110 Rockford Ln,NA,Louisville,KY,40216,2212,JEFFERSON,GRABANDGO,445120,3,Convenience Store
Broadway Market,-85.757317,38.246006,332 W Broadway,Ste 105,Louisville,KY,40202,2176,JEFFERSON,BROADWAY MARKET,445110,1,Grocery
Shop Today,-85.624519,38.217728,3038 Hunsinger Lane,NA,Louisville,KY,40220,NA,JEFFERSON,SHOP TODAY,445120,3,Convenience Store
Thornton's 161,-85.614883,38.249645,7515 Shelbyville Rd,NA,Louisville,KY,40222,5407,JEFFERSON,THORNTONS,445120,3,Convenience Store
Mellwood Valero,-85.721863,38.255775,1500 Mellwood Ave,NA,Louisville,KY,40206,1750,JEFFERSON,MELLWOOD VALERO,445120,3,Convenience Store
Alfratain,-85.802933,38.154446,7319 Saint Andrews Church Rd,NA,Louisville,KY,40214,4011,JEFFERSON,ALFRATAIN,445200,5,Specialized Lines of Food
Taylor Blvd Valero,-85.775826,38.206589,3039 Taylor Blvd,NA,Louisville,KY,40208,1174,JEFFERSON,TAYLOR BLVD VALERO,445120,3,Convenience Store
Shree Sai Corporation,-85.797226,38.169201,6000 Manslick Rd,NA,Louisville,KY,40214,1144,JEFFERSON,SHREE SAI CORPORATION,445200,5,Specialized Lines of Food
J And C Gas Station,-85.797745,38.171303,4953 Manslick Rd,NA,Louisville,KY,40216,4025,JEFFERSON,J AND C GAS STATION,445120,3,Convenience Store
Elmars,-85.371613,38.105865,26 Commerce Dr,NA,Fisherville,KY,40023,6413,JEFFERSON,ELMARS,445120,3,Convenience Store
Thornton's 162,-85.57708,38.286007,9400 Westport Rd,NA,Louisville,KY,40241,2220,JEFFERSON,THORNTONS,445120,3,Convenience Store
Oak Food Mart,-85.734589,38.233166,1056 E Oak St,NA,Louisville,KY,40204,1963,JEFFERSON,OAK FOOD MART,445120,3,Convenience Store
Mi Preferida 3 LLC,-85.75106,38.132298,8104 National  Tpke,Ste 107,Louisville,KY,40214,NA,JEFFERSON,MI PREFERIDA  LLC,445110,1,Grocery
Jr Mini Mart,-85.635719,38.137646,6720 Outer Loop,NA,Louisville,KY,40228,1822,JEFFERSON,JR MINI MART,445120,3,Convenience Store
24-7 Convenience Plus,-85.740234,38.211117,2703 Preston Hwy,NA,Louisville,KY,40217,2401,JEFFERSON,CONVENIENCE PLUS,445120,3,Convenience Store
Lamp Fall Grocery Store,-85.68605,38.200275,4222 Bishop Ln,NA,Louisville,KY,40218,4516,JEFFERSON,LAMP FALL GROCERY STORE,445110,1,Grocery
Dollar Tree 5784,-85.613655,38.135159,7813 Beulah Church Rd,116-118,Louisville,KY,40228,NA,JEFFERSON,DOLLAR TREE,445120,3,Convenience Store
Wayside Christian Mission,-85.754272,38.245773,120 W Broadway,NA,Louisville,KY,40202,2136,JEFFERSON,WAYSIDE CHRISTIAN MISSION,445200,5,Specialized Lines of Food
Speedy Mart 22,-85.782684,38.175697,4406 Taylor Blvd,NA,Louisville,KY,40215,2304,JEFFERSON,SPEEDY MART,445120,3,Convenience Store
St. Matthews Mini Mart,-85.657608,38.252422,316 Wallace Ave,NA,Louisville,KY,40207,3008,JEFFERSON,ST MATTHEWS MINI MART,445120,3,Convenience Store
Mapco Mart 7522,-85.698486,38.15675,3415 Fern Valley Rd,NA,Louisville,KY,40213,3529,JEFFERSON,MAPCO MART,445120,3,Convenience Store
Bethleham 2014 LLC,-85.742393,38.224606,1506 S Shelby St,NA,Louisville,KY,40217,1109,JEFFERSON,BETHLEHAM  LLC,445120,3,Convenience Store
Cash Saver 170,-85.757027,38.103497,501 Mount Holly Rd,NA,Fairdale,KY,40118,9002,JEFFERSON,CASH SAVER,445110,1,Grocery
Ali's Food Mart 1,-85.789902,38.229881,1444 Dixie Hwy,NA,Louisville,KY,40210,1770,JEFFERSON,ALIS FOOD MART,445120,3,Convenience Store
"Fantastic Market, Inc.",-85.791298,38.269413,2600 Bank St,NA,Louisville,KY,40212,2020,JEFFERSON,FANTASTIC MARKET INC,445120,3,Convenience Store
"12th And Hill Market, Llc",-85.775421,38.227497,1201 W Hill St,NA,Louisville,KY,40210,1843,JEFFERSON,TH AND HILL MARKET LLC,6,6,Farmer's Market
Shop Today 4 Inc/Sara Foodmart,-85.777267,38.175457,1001 Brookline Ave,NA,Louisville,KY,40215,2315,JEFFERSON,SHOP TODAY  INCSARA FOODMART,445120,3,Convenience Store
Supermercado Guanajuato,-85.699295,38.161049,6201 Preston Hwy,Ste B,Louisville,KY,40219,1855,JEFFERSON,SUPERMERCADO GUANAJUATO,445200,5,Specialized Lines of Food
Speedway 9451,-85.496101,38.272495,2400 Terra Crossing Blvd,NA,Louisville,KY,40245,5370,JEFFERSON,SPEEDWAY,445120,3,Convenience Store
Aldi 41,-85.556084,38.295116,10620 Westport Rd,NA,Louisville,KY,40241,1959,JEFFERSON,ALDI,445110,1,Grocery
Jay's Food Mart,-85.660553,38.164375,5370 Rangeland Rd,NA,Louisville,KY,40219,5422,JEFFERSON,JAYS FOOD MART,445120,3,Convenience Store
Smoketown Neighborhood Fresh Stop,-85.743881,38.240246,610 E Breckinridge St,NA,Louisville,KY,40203,2587,JEFFERSON,SMOKETOWN NEIGHBORHOOD FRESH STOP,445200,5,Specialized Lines of Food
Fish N More,-85.786995,38.258564,2200 W Market St,NA,Louisville,KY,40212,1535,JEFFERSON,FISH N MORE,445200,5,Specialized Lines of Food
Papa Murphys Take And Bake Pizza 040,-85.763893,38.205227,3024 S 3rd St,NA,Louisville,KY,40208,1417,JEFFERSON,PAPA MURPHYS TAKE AND BAKE PIZZA,447110,4,Food Mart
Big Lots 175,-85.604027,38.168221,5318 Bardstown Rd,NA,Louisville,KY,40291,1931,JEFFERSON,BIG LOTS,445120,3,Convenience Store
Big Lots 226,-85.64608,38.252167,4121 Shelbyville Rd,NA,Louisville,KY,40207,NA,JEFFERSON,BIG LOTS,445120,3,Convenience Store
Big Lots 1686,-85.699295,38.161049,6201 Preston Hwy,NA,Louisville,KY,40219,NA,JEFFERSON,BIG LOTS,445120,3,Convenience Store
Big Lots 1750,-85.853256,38.124168,9070 Dixie Hwy,NA,Louisville,KY,40258,NA,JEFFERSON,BIG LOTS,445120,3,Convenience Store
Big Lots 1311,-85.628181,38.219921,3938 Taylorsville Rd,NA,Louisville,KY,40220,1450,JEFFERSON,BIG LOTS,445120,3,Convenience Store
Parkland Neighborhood Fresh Stop,-85.796356,38.237747,2600 Virginia Ave,NA,Louisville,KY,40211,3415,JEFFERSON,PARKLAND NEIGHBORHOOD FRESH STOP,445110,1,Grocery
Speedy Mart,-85.764961,38.210388,401 Winkler Ave,NA,Louisville,KY,40208,1549,JEFFERSON,SPEEDY MART,445120,3,Convenience Store
Speedway 9606,-85.561485,38.315762,10009 Brownsboro Rd,NA,Louisville,KY,40241,1101,JEFFERSON,SPEEDWAY,445120,3,Convenience Store
Bluegrass Farmers Market,-85.793846,38.179379,1850 Bluegrass Ave,NA,Louisville,KY,40215,NA,JEFFERSON,BLUEGRASS FARMERS MARKET,445200,5,Specialized Lines of Food
Market Zone 2,-85.793694,38.259968,118 S 26th St,NA,Louisville,KY,40212,1500,JEFFERSON,MARKET ZONE,445120,3,Convenience Store
7th St Food Mart,-85.783165,38.214577,2517 7th St,NA,Louisville,KY,40208,NA,JEFFERSON,TH ST FOOD MART,445120,3,Convenience Store
Big Lots 346,-85.775139,38.145031,5518 New Cut Rd,NA,Louisville,KY,40214,4330,JEFFERSON,BIG LOTS,445120,3,Convenience Store
Key Market,-85.645393,38.112347,9409 Smyrna Pkwy,NA,Louisville,KY,40229,1419,JEFFERSON,KEY MARKET,445110,1,Grocery
Ace Smoke Shop,-85.840843,38.196575,4443 Cane Run Rd,Ste 210,Louisville,KY,40216,4596,JEFFERSON,ACE SMOKE SHOP,445120,3,Convenience Store
Dixie Food Market,-85.78952,38.230831,1420 Dixie Hwy,NA,Louisville,KY,40210,1710,JEFFERSON,DIXIE FOOD MARKET,445120,3,Convenience Store
Jasmin Bakery,-85.656921,38.197544,2205 Steier Ln,NA,Louisville,KY,40218,1544,JEFFERSON,JASMIN BAKERY,447110,4,Food Mart
Cedar Creek Corner Store,-85.623833,38.083107,7519 Mount Washington Rd,NA,Louisville,KY,40229,2435,JEFFERSON,CEDAR CREEK CORNER STORE,445120,3,Convenience Store
Discount Cigarette And Liquor Outlet 2,-85.837646,38.112061,9833 3rd Street Rd,NA,Louisville,KY,40272,2868,JEFFERSON,DISCOUNT CIGARETTE AND LIQUOR OUTLET,445120,3,Convenience Store
Discount Cigarette And Liquor Outlet 2,-85.837646,38.112061,9833 3rd Street Rd,NA,Louisville,KY,40272,2868,JEFFERSON,DISCOUNT CIGARETTE AND LIQUOR OUTLET,447110,4,Food Mart
Satnam Llc,-85.5382,38.300396,11401 Westport Rd,NA,Louisville,KY,40241,3808,JEFFERSON,SATNAM LLC,447110,4,Food Mart
Dollar General 15669,-85.786751,38.237335,1201 Dixie Hwy,NA,Louisville,KY,40210,1405,JEFFERSON,DOLLAR GENERAL,447110,4,Food Mart
Dollar General 15669,-85.786751,38.237335,1201 Dixie Hwy,NA,Louisville,KY,40210,1405,JEFFERSON,DOLLAR GENERAL,445120,3,Convenience Store
Dina Llc Dba Dino's Food Mart,-85.795372,38.249527,2601 W Broadway,NA,Louisville,KY,40211,1332,JEFFERSON,DINA LLC DBA DINOS FOOD MART,445120,3,Convenience Store
West Market Food Mart,-85.815941,38.262608,4015 W Market St,NA,Louisville,KY,40212,2540,JEFFERSON,WEST MARKET FOOD MART,445120,3,Convenience Store
Zayed Llc Dba Expressway Mart,-85.776093,38.24818,1420 W Broadway,NA,Louisville,KY,40203,2060,JEFFERSON,ZAYED LLC DBA EXPRESSWAY MART,445120,3,Convenience Store
Garland Food Market,-85.795578,38.244614,2600 Garland Ave,NA,Louisville,KY,40211,1208,JEFFERSON,GARLAND FOOD MARKET,445120,3,Convenience Store
Dollar General 15707,-85.890137,38.05669,13725 Dixie Hwy,NA,Louisville,KY,40272,1357,JEFFERSON,DOLLAR GENERAL,447110,4,Food Mart
Dollar General 15707,-85.890137,38.05669,13725 Dixie Hwy,NA,Louisville,KY,40272,1357,JEFFERSON,DOLLAR GENERAL,445120,3,Convenience Store
Kentucky Food Max,-85.740456,38.236855,800 E Kentucky St,NA,Louisville,KY,40204,1824,JEFFERSON,KENTUCKY FOOD MAX,445110,1,Grocery
Hunter's Market,-85.87072,38.167274,6303 Lower Hunters Trce,NA,Louisville,KY,40258,3207,JEFFERSON,HUNTERS MARKET,445120,3,Convenience Store
Coco's Cakes,-85.762093,38.235222,501 W Oak St,NA,Louisville,KY,40203,3007,JEFFERSON,COCOS CAKES,447110,4,Food Mart
A&A Food Mart LLC,-85.817596,38.173428,1629 Gagel Ave,NA,Louisville,KY,40216,2735,JEFFERSON,AA FOOD MART LLC,445120,3,Convenience Store
B Quick,-85.836685,38.167706,2119 Upper Hunters Trce,NA,Louisville,KY,40216,1743,JEFFERSON,B QUICK,445120,3,Convenience Store
Tienda Catrachos LLC 1,-85.765068,38.156296,414 E Kenwood Dr,NA,Louisville,KY,40214,3604,JEFFERSON,TIENDA CATRACHOS LLC,447110,4,Food Mart
Indian Trail Save-A-Lot,-85.703339,38.165745,5747 Preston Hwy,NA,Louisville,KY,40219,9802,JEFFERSON,INDIAN TRAIL SAVEALOT,445120,3,Convenience Store
Circle K 3363,-85.524261,38.187077,12415 Taylorsville Rd,NA,Louisville,KY,40299,4430,JEFFERSON,CIRCLE K,445120,3,Convenience Store
MOES,-85.795769,38.241474,1029 S 26th St,NA,Louisville,KY,40210,1103,JEFFERSON,MOES,445120,3,Convenience Store
Thorntons 163,-85.66935,38.208939,3255 Bardstown Rd,NA,Louisville,KY,40205,3099,JEFFERSON,THORNTONS,445120,3,Convenience Store
Minit Mar 683,-85.75132,38.236042,1123 S Floyd St,NA,Louisville,KY,40203,2719,JEFFERSON,MINIT MAR,445120,3,Convenience Store
S A Bakery And Market,-85.755714,38.164654,6305 Strawberry Ln,NA,Louisville,KY,40214,2930,JEFFERSON,S A BAKERY AND MARKET,447110,4,Food Mart
Family Dollar Store 11504,-85.772705,38.247684,1234 W Broadway,NA,Louisville,KY,40203,2062,JEFFERSON,FAMILY DOLLAR STORE,445120,3,Convenience Store
Las Americas Mexican Store,-85.639565,38.209972,3719 Klondike Ln,NA,Louisville,KY,40218,1768,JEFFERSON,LAS AMERICAS MEXICAN STORE,447110,4,Food Mart
Nawal Grocery,-85.764732,38.157169,6918 Southside Dr,NA,Louisville,KY,40214,3722,JEFFERSON,NAWAL GROCERY,445110,1,Grocery
Alisha's Foort Mart,-85.648758,38.192978,4010 Bardstown Rd,NA,Louisville,KY,40218,2631,JEFFERSON,ALISHAS FOORT MART,445120,3,Convenience Store
Rpv Enterprises Inc.,-85.765457,38.206066,3004 S 4th St,NA,Louisville,KY,40208,1306,JEFFERSON,RPV ENTERPRISES INC,445120,3,Convenience Store
Vietnam Oriental Food Market,-85.767616,38.173634,5019 S 3rd St,NA,Louisville,KY,40214,2207,JEFFERSON,VIETNAM ORIENTAL FOOD MARKET,447110,4,Food Mart
Bombay International 1,-85.704643,38.230743,1591 Bardstown Rd,NA,Louisville,KY,40205,1150,JEFFERSON,BOMBAY INTERNATIONAL,447110,4,Food Mart
Gagel Food Market LLC,-85.782181,38.265476,2001 Bank St,NA,Louisville,KY,40203,1027,JEFFERSON,GAGEL FOOD MARKET LLC,445120,3,Convenience Store
Dollar Tree 6274,-85.782043,38.126659,161 Outer Loop,NA,Louisville,KY,40214,5598,JEFFERSON,DOLLAR TREE,445120,3,Convenience Store
Norfork Food Mart,-85.638191,38.186138,4310 Fegenbush Ln,NA,Louisville,KY,40228,1170,JEFFERSON,NORFORK FOOD MART,445120,3,Convenience Store
Fresh Thyme Farmers Market 803STM,-85.636848,38.251419,4301 Shelbyville Rd,NA,Louisville,KY,40207,3319,JEFFERSON,FRESH THYME FARMERS MARKET STM,445200,5,Specialized Lines of Food
Shively Fresh Stop Market,-85.821014,38.194782,2304 Crums Ln,NA,Louisville,KY,40216,3602,JEFFERSON,SHIVELY FRESH STOP MARKET,445110,1,Grocery
Sun Valley Fresh Stop Market,-85.883522,38.100559,6505 Bethany Ln,NA,Louisville,KY,40272,3757,JEFFERSON,SUN VALLEY FRESH STOP MARKET,445110,1,Grocery
Old Louisville Fresh Stop Market,-85.758751,38.243732,809 S 4th St,NA,Louisville,KY,40203,2115,JEFFERSON,OLD LOUISVILLE FRESH STOP MARKET,445110,1,Grocery
"Pink Box Bakery, Inc.",-85.82415,38.173569,4749 Dixie Hwy,NA,Louisville,KY,40216,2653,JEFFERSON,PINK BOX BAKERY INC,447110,4,Food Mart
Safari Food Market LLC,-85.779533,38.210602,1316 Central Ave,Frnt,Louisville,KY,40208,1160,JEFFERSON,SAFARI FOOD MARKET LLC,445120,3,Convenience Store
"Tienda Los Amigos, Llc",-85.748344,38.120979,8812 National Tpke,NA,Fairdale,KY,40118,9644,JEFFERSON,TIENDA LOS AMIGOS LLC,447110,4,Food Mart
Newburg Liquor Store,-85.664131,38.185036,5104 E Indian Trl,NA,Louisville,KY,40218,3363,JEFFERSON,NEWBURG LIQUOR STORE,445120,3,Convenience Store
Food Mart Express Llc,-85.814919,38.250156,3727 W Broadway,NA,Louisville,KY,40211,2869,JEFFERSON,FOOD MART EXPRESS LLC,445120,3,Convenience Store
La Cienfueguera Food Market,-85.842087,38.156937,1937 Lower Hunters Trce,NA,Louisville,KY,40216,1561,JEFFERSON,LA CIENFUEGUERA FOOD MARKET,447110,4,Food Mart
Almuna Halal Meat,-85.783264,38.214489,2521 7th Street Rd,NA,Louisville,KY,40208,1082,JEFFERSON,ALMUNA HALAL MEAT,447110,4,Food Mart
Family Dollar 11491,-85.813881,38.261856,3901 W Market St,NA,Louisville,KY,40212,2538,JEFFERSON,FAMILY DOLLAR,445120,3,Convenience Store
24/7 Stop & Go,-85.751518,38.214264,427 Warnock St,NA,Louisville,KY,40217,1646,JEFFERSON,STOP  GO,445120,3,Convenience Store
Tony's Convenience Mart,-85.794724,38.249443,2532 W Broadway,NA,Louisville,KY,40211,1010,JEFFERSON,TONYS CONVENIENCE MART,445120,3,Convenience Store
Costco 1238,-85.666222,38.204929,3408 Bardstown Rd,NA,Louisville,KY,40218,4608,JEFFERSON,COSTCO,452910,2,Super Center and Club Store
Cash Saver 171,-85.807991,38.225788,3044 Wilson Ave,NA,Louisville,KY,40211,1970,JEFFERSON,CASH SAVER,445110,1,Grocery
Bquick Food Mart,-85.782089,38.140224,7600 3rd Street Rd,NA,Louisville,KY,40214,5565,JEFFERSON,BQUICK FOOD MART,445120,3,Convenience Store
Gagel Pic Pac,-85.799622,38.171169,723 Gagel Ave,NA,Louisville,KY,40216,4007,JEFFERSON,GAGEL PIC PAC,445110,1,Grocery
City Market I,-85.786743,38.249165,2100 W Broadway,NA,Louisville,KY,40211,1002,JEFFERSON,CITY MARKET I,445120,3,Convenience Store
Walmart Supercenter 6931,-85.670113,38.137672,4840 Outer Loop,NA,Louisville,KY,40219,3302,JEFFERSON,WALMART SUPERCENTER,445110,1,Grocery
Asian Bazaar LLC,-85.658325,38.200108,2218 Hikes Ln,NA,Louisville,KY,40218,2204,JEFFERSON,ASIAN BAZAAR LLC,447110,4,Food Mart
Circle K 106,-85.635712,38.251274,4300 Shelbyville Rd,NA,Louisville,KY,40207,3391,JEFFERSON,CIRCLE K,445120,3,Convenience Store
Samis Llc,-85.744102,38.213753,786 Miller St,NA,Louisville,KY,40217,1924,JEFFERSON,SAMIS LLC,445120,3,Convenience Store
The Original Bardstown Road Farmers Market,-85.702667,38.229446,1722 Bardstown Rd,NA,Louisville,KY,40205,1294,JEFFERSON,THE ORIGINAL BARDSTOWN ROAD FARMERS MARKET,445200,5,Specialized Lines of Food
Oak's Food Mart LLC,-85.759117,38.234955,325 W Oak St,NA,Louisville,KY,40203,2903,JEFFERSON,OAKS FOOD MART LLC,445120,3,Convenience Store
Amina Food Market,-85.785835,38.239796,1100 Dixie Hwy,NA,Louisville,KY,40210,1225,JEFFERSON,AMINA FOOD MARKET,447110,4,Food Mart
Tikal Placita Llc 1,-85.710144,38.259579,1961 Brownsboro Rd,Ste 4,Louisville,KY,40206,2177,JEFFERSON,TIKAL PLACITA LLC,447110,4,Food Mart
Yogi Minimart Inc - Minimart,-85.62915,38.197624,6620 Six Mile Ln,NA,Louisville,KY,40218,2357,JEFFERSON,YOGI MINIMART INC  MINIMART,445120,3,Convenience Store
Millennium Llc,-85.807022,38.260967,3401 W Market St,NA,Louisville,KY,40212,2349,JEFFERSON,MILLENNIUM LLC,445120,3,Convenience Store
Fortune 500 LLC - Pic Pac,-85.689529,38.114231,9304 Blue Lick Rd,NA,Louisville,KY,40229,1054,JEFFERSON,FORTUNE  LLC  PIC PAC,447110,4,Food Mart
Fortune 500 LLC - Pic Pac,-85.689529,38.114231,9304 Blue Lick Rd,NA,Louisville,KY,40229,1054,JEFFERSON,FORTUNE  LLC  PIC PAC,445120,3,Convenience Store
Stop & Save Food Mart,-85.785919,38.211369,2752 7th Street Rd,NA,Louisville,KY,40215,2269,JEFFERSON,STOP  SAVE FOOD MART,447110,4,Food Mart
Stop & Save Food Mart,-85.785919,38.211369,2752 7th Street Rd,NA,Louisville,KY,40215,2269,JEFFERSON,STOP  SAVE FOOD MART,445120,3,Convenience Store
CVS Pharmacy 10532,-85.659348,38.198654,3700 Bardstown Rd,NA,Louisville,KY,40218,2209,JEFFERSON,CVS PHARMACY,445120,3,Convenience Store
J & M Foodmart,-85.794037,38.255177,2533 W Muhammad Ali Blvd,NA,Louisville,KY,40212,1759,JEFFERSON,J  M FOODMART,447110,4,Food Mart
Lucky Star Petro,-85.627319,38.181477,4527 Bardstown Rd,NA,Louisville,KY,40218,4001,JEFFERSON,LUCKY STAR PETRO,445120,3,Convenience Store
Ralhla Asian Market,-85.764725,38.156731,6916 Southside Dr,NA,Louisville,KY,40214,3722,JEFFERSON,RALHLA ASIAN MARKET,445200,5,Specialized Lines of Food
Rockford Plaza Liquor 1,-85.827507,38.176823,4754 Rockford Plz,NA,Louisville,KY,40216,2631,JEFFERSON,ROCKFORD PLAZA LIQUOR,447110,4,Food Mart
Ghanshayam Swarup Llc,-85.750786,38.204738999999996,2704 Crittenden Dr,NA,Louisville,KY,40209,1114,JEFFERSON,GHANSHAYAM SWARUP LLC,445200,5,Specialized Lines of Food
F And H Food Mart Llc,-85.813438,38.271427,441 N 41st St,NA,Louisville,KY,40212,2753,JEFFERSON,F AND H FOOD MART LLC,447110,4,Food Mart
L&b Sisters Grocery Store Llc,-85.64637,38.191807,4109 Bardstown Rd,Ste 103,Louisville,KY,40218,3290,JEFFERSON,LB SISTERS GROCERY STORE LLC,447110,4,Food Mart
Abhinav A LLC,-85.702881,38.245514,2338 Lexington Rd,NA,Louisville,KY,40206,2821,JEFFERSON,ABHINAV A LLC,445120,3,Convenience Store
Quick Stop Liquor & More,-85.687233,38.132236,8116 Blue Lick Rd,NA,Louisville,KY,40219,4308,JEFFERSON,QUICK STOP LIQUOR  MORE,447110,4,Food Mart
Prp Stop And Go,-85.873329,38.136173,8105 Terry Rd,NA,Louisville,KY,40258,1763,JEFFERSON,PRP STOP AND GO,447110,4,Food Mart
28th & Virginia Grocery Store,-85.800552,38.238167,2801 Virginia Ave,Unit 3,Louisville,KY,40211,3418,JEFFERSON,TH  VIRGINIA GROCERY STORE,447110,4,Food Mart
Hala Somke Shop And Grocery,-85.532661,38.30212,4102 Murphy Ln,NA,Louisville,KY,40241,1860,JEFFERSON,HALA SOMKE SHOP AND GROCERY,447110,4,Food Mart
Z & H Smokers Llc,-85.759903,38.237568,1032 S 4th St,NA,Louisville,KY,40203,3208,JEFFERSON,Z  H SMOKERS LLC,447110,4,Food Mart
Global Herow Store Llc,-85.79554,38.196663,1736 Berry Blvd,NA,Louisville,KY,40215,1904,JEFFERSON,GLOBAL HEROW STORE LLC,445200,5,Specialized Lines of Food
Ayaamin Llc Dba Dinos Rockford Lane,-85.849236,38.178917,2710 Rockford Ln,NA,Louisville,KY,40216,2216,JEFFERSON,AYAAMIN LLC DBA DINOS ROCKFORD LANE,447110,4,Food Mart
Gendler Grapevine Fresh Stop Market At The J,-85.650253,38.226055,3600 Dutchmans Ln,NA,Louisville,KY,40205,3302,JEFFERSON,GENDLER GRAPEVINE FRESH STOP MARKET AT THE J,445200,5,Specialized Lines of Food
In-N-Out Food Mart,-85.891495,38.055031,13815 Dixie Hwy,NA,Louisville,KY,40272,1156,JEFFERSON,INNOUT FOOD MART,447110,4,Food Mart
Belel International Market Llc,-85.64637,38.191807,4109 Bardstown Rd,Ste 107,Louisville,KY,40218,3290,JEFFERSON,BELEL INTERNATIONAL MARKET LLC,445200,5,Specialized Lines of Food
Warsi Trader LLC - Daily Mart,-85.788002,38.234512,1320 Dixie Hwy,NA,Louisville,KY,40210,1773,JEFFERSON,WARSI TRADER LLC  DAILY MART,447110,4,Food Mart
Jyoti Mini Mart Inc - Manley's Marathon,-85.801628,38.15572,7205 Manslick Rd,NA,Louisville,KY,40214,3310,JEFFERSON,JYOTI MINI MART INC  MANLEYS MARATHON,445120,3,Convenience Store
Schnitzelburg Community Farmers Market,-85.742043,38.225204,1481 S Shelby St,NA,Louisville,KY,40217,1168,JEFFERSON,SCHNITZELBURG COMMUNITY FARMERS MARKET,6,6,Farmer's Market
Dollar General 17104,-85.643883,38.114849,9267 Smyrna Pkwy,NA,Louisville,KY,40229,1415,JEFFERSON,DOLLAR GENERAL,447110,4,Food Mart
Dollar General 17104,-85.643883,38.114849,9267 Smyrna Pkwy,NA,Louisville,KY,40229,1415,JEFFERSON,DOLLAR GENERAL,445120,3,Convenience Store
Family Dollar 11859,-85.791069,38.259258,2421 W Market St,NA,Louisville,KY,40212,1538,JEFFERSON,FAMILY DOLLAR,445120,3,Convenience Store
Gulf Point LLC - Boone's Marathon,-85.783241,38.267063,521 N 22nd St,NA,Louisville,KY,40203,1019,JEFFERSON,GULF POINT LLC  BOONES MARATHON,445120,3,Convenience Store
Crossroads IGA 785,-85.600868,38.365726,13124 W Highway 42,NA,Prospect,KY,40059,9263,JEFFERSON,CROSSROADS IGA,445110,1,Grocery
Convenient Plus,-85.812408,38.194466,2121 Crums Ln,NA,Louisville,KY,40216,4231,JEFFERSON,CONVENIENT PLUS,447110,4,Food Mart
Shri Hanuman LLC - Third Street Gas Station,-85.768562,38.168617,5620 S 3rd St,NA,Louisville,KY,40214,2616,JEFFERSON,SHRI HANUMAN LLC  THIRD STREET GAS STATION,445120,3,Convenience Store
Brother Food Mart,-85.79644,38.237804,2601 Virginia Ave,NA,Louisville,KY,40211,3414,JEFFERSON,BROTHER FOOD MART,447110,4,Food Mart
Shop & Go,-85.7836,38.187473,3901 Taylor Blvd,NA,Louisville,KY,40215,2505,JEFFERSON,SHOP  GO,447110,4,Food Mart
Dixie Quick Stop LLC,-85.834457,38.160355,4129 Flintlock Dr,NA,Louisville,KY,40216,1595,JEFFERSON,DIXIE QUICK STOP LLC,447110,4,Food Mart
Taylor Quick Stop,-85.782829,38.197586,3449 Taylor Blvd,NA,Louisville,KY,40215,2645,JEFFERSON,TAYLOR QUICK STOP,447110,4,Food Mart
Brothers Food Mart,-85.760117,38.235924,1163 S 4th St,NA,Louisville,KY,40203,3101,JEFFERSON,BROTHERS FOOD MART,447110,4,Food Mart
Jay Sai LLC,-85.762901,38.219917,1927 S 4th St,NA,Louisville,KY,40208,1814,JEFFERSON,JAY SAI LLC,447110,4,Food Mart
Faris LLC,-85.696419,38.096779,10231 Blue Lick Rd,NA,Louisville,KY,40229,2607,JEFFERSON,FARIS LLC,445200,5,Specialized Lines of Food
Save More Food Mart,-85.776146,38.227577,1219 W Hill St,NA,Louisville,KY,40210,1843,JEFFERSON,SAVE MORE FOOD MART,447110,4,Food Mart
Euro Cafe & Bakery,-85.764656,38.156624,6917 Southside Dr,NA,Louisville,KY,40214,3721,JEFFERSON,EURO CAFE  BAKERY,445200,5,Specialized Lines of Food
Dongar Food Mart & Deli,-85.761353,38.149582,5600 National Turnpike,NA,Louisville,KY,40214,4021,JEFFERSON,DONGAR FOOD MART  DELI,447110,4,Food Mart
South Points Farmers Market,-85.783577,38.181644,4148 Taylor Blvd,NA,Louisville,KY,40215,2342,JEFFERSON,SOUTH POINTS FARMERS MARKET,6,6,Farmer's Market
Preston Corner,-85.746872,38.218578,2044 S Preston St,NA,Louisville,KY,40217,2116,JEFFERSON,PRESTON CORNER,447110,4,Food Mart
Supermercado La Rosita Inc,-85.712967,38.174938,5059 Preston Hwy,NA,Louisville,KY,40213,2213,JEFFERSON,SUPERMERCADO LA ROSITA INC,445200,5,Specialized Lines of Food
Webb's Inc/ Webb's Market,-85.734879,38.248646,944 E Muhammad Ali Blvd,NA,Louisville,KY,40204,1043,JEFFERSON,WEBBS INC WEBBS MARKET,445200,5,Specialized Lines of Food
Shri Umiya Llc/ J Food Mart,-85.665627,38.125416,8506 Shepherdsville Rd,NA,Louisville,KY,40219,4537,JEFFERSON,SHRI UMIYA LLC J FOOD MART,445200,5,Specialized Lines of Food
Apple Food Mart,-85.772499,38.247719,1211 W Broadway,Unit 101,Louisville,KY,40203,2082,JEFFERSON,APPLE FOOD MART,447110,4,Food Mart
Iroquois Convenient Food Mart,-85.779587,38.163269,5105 New Cut Rd,NA,Louisville,KY,40214,2745,JEFFERSON,IROQUOIS CONVENIENT FOOD MART,447110,4,Food Mart
Bodega Mi Sueno Corp,-85.66877,38.197945,3646 Mall Rd,NA,Louisville,KY,40218,5403,JEFFERSON,BODEGA MI SUENO CORP,445200,5,Specialized Lines of Food
Nayef Llc,-85.788559,38.196445,1506 Berry Blvd,NA,Louisville,KY,40215,1955,JEFFERSON,NAYEF LLC,447110,4,Food Mart
Dollar General 19110,-85.802834,38.195164,3808 7th Street Rd,NA,Louisville,KY,40216,4102,JEFFERSON,DOLLAR GENERAL,447110,4,Food Mart
Dollar General 19110,-85.802834,38.195164,3808 7th Street Rd,NA,Louisville,KY,40216,4102,JEFFERSON,DOLLAR GENERAL,445120,3,Convenience Store
Dollar General 19109,-85.791168,38.249306,2324 W Broadway,NA,Louisville,KY,40211,1006,JEFFERSON,DOLLAR GENERAL,447110,4,Food Mart
Dollar General 19109,-85.791168,38.249306,2324 W Broadway,NA,Louisville,KY,40211,1006,JEFFERSON,DOLLAR GENERAL,445120,3,Convenience Store
Wabari Food Market Llc,-85.788742,38.20713,2951 7th Street Rd,NA,Louisville,KY,40216,4125,JEFFERSON,WABARI FOOD MARKET LLC,445200,5,Specialized Lines of Food
Dollar General 17154,-85.793785,38.118389,10608 W Manslick Rd,NA,Louisville,KY,40272,NA,JEFFERSON,DOLLAR GENERAL,447110,4,Food Mart
Dollar General 17154,-85.793785,38.118389,10608 W Manslick Rd,NA,Louisville,KY,40272,NA,JEFFERSON,DOLLAR GENERAL,445120,3,Convenience Store
Southside Pic Pac Inc. 5738,-85.764748,38.159668,6629 Southside Dr,NA,Louisville,KY,40214,2800,JEFFERSON,SOUTHSIDE PIC PAC INC,447110,4,Food Mart
Tienda La Chapinlandia,-85.68924,38.144764,1209 McCawley Rd,NA,Louisville,KY,40219,2712,JEFFERSON,TIENDA LA CHAPINLANDIA,445200,5,Specialized Lines of Food
Mos Food Mart,-85.735107,38.22699,1036 Goss Ave,NA,Louisville,KY,40217,1236,JEFFERSON,MOS FOOD MART,447110,4,Food Mart
West Market 1,-85.816399,38.262741,4105 W Market St,NA,Louisville,KY,40212,2542,JEFFERSON,WEST MARKET,447110,4,Food Mart
Big Lots 5355,-85.835495,38.154182,6650 Dixie Hwy,NA,Louisville,KY,40258,3910,JEFFERSON,BIG LOTS,445120,3,Convenience Store
City Market,-85.79451,38.268951,438 N 28th St,NA,Louisville,KY,40212,1961,JEFFERSON,CITY MARKET,447110,4,Food Mart
Royal Bazaar,-85.54483,38.301796,11324 Maple Brook Dr,NA,Louisville,KY,40241,2080,JEFFERSON,ROYAL BAZAAR,445200,5,Specialized Lines of Food
Buechel Liquor,-85.647728,38.19109,2141 Buechel Bank Rd,NA,Louisville,KY,40218,3563,JEFFERSON,BUECHEL LIQUOR,447110,4,Food Mart
P & P Grocery,-85.638184,38.186569,4300 Fegenbush Ln,NA,Louisville,KY,40228,1170,JEFFERSON,P  P GROCERY,447110,4,Food Mart
Happys Food Mart,-85.757988,38.228981,1397 S 2nd St,NA,Louisville,KY,40208,2303,JEFFERSON,HAPPYS FOOD MART,447110,4,Food Mart
Roses Express 691,-85.705399,38.16774,5607 Preston Hwy,NA,Louisville,KY,40219,1303,JEFFERSON,ROSES EXPRESS,447110,4,Food Mart
Khodiyar Food Mart,-85.684532,38.171089,4903 Poplar Level Rd,NA,Louisville,KY,40219,1127,JEFFERSON,KHODIYAR FOOD MART,447110,4,Food Mart
Sista's Meat Market,-85.791748,38.224968,1731 Dixie Hwy,NA,Louisville,KY,40210,2313,JEFFERSON,SISTAS MEAT MARKET,445200,5,Specialized Lines of Food
Victory Variety Mart,-85.789276,38.242161,2129 W Kentucky St,NA,Louisville,KY,40210,1156,JEFFERSON,VICTORY VARIETY MART,447110,4,Food Mart
Murphy USA 7533,-85.870903,38.174034,7000 Raggard Rd,NA,Louisville,KY,40216,1285,JEFFERSON,MURPHY USA,447110,4,Food Mart
Platinum Foodmart,-85.769234,38.247272,1025 W Broadway,NA,Louisville,KY,40203,2030,JEFFERSON,PLATINUM FOODMART,447110,4,Food Mart
Latin American Corner Corp,-85.783943,38.186211,4000 Taylor Blvd,NA,Louisville,KY,40215,2543,JEFFERSON,LATIN AMERICAN CORNER CORP,445200,5,Specialized Lines of Food
THORNTONS QUICK CAFE & MARKET 97,-85.633568,38.251083,4500 Shelbyville Rd,NA,Louisville,KY,40207,3324,JEFFERSON,THORNTONS QUICK CAFE  MARKET,445120,3,Convenience Store
THORNTON'S GAS & FOOD MART 56,-85.848061,38.129978,8400 Dixie Hwy,NA,Louisville,KY,40258,1140,JEFFERSON,THORNTONS GAS  FOOD MART,445120,3,Convenience Store
KROGER #L-00387 L387,-85.639519,38.257679,279 N Hubbards Ln,NA,Louisville,KY,40207,2300,JEFFERSON,KROGER L L,445110,1,Grocery
THORNTON'S GAS & FOOD MART 98,-85.833084,38.202744,4136 Cane Run Rd,NA,Louisville,KY,40216,4870,JEFFERSON,THORNTONS GAS  FOOD MART,445120,3,Convenience Store
KROGER #L-00346 L346,-85.627357,38.216534,3039 Breckenridge Ln,NA,Louisville,KY,40220,2101,JEFFERSON,KROGER L L,445110,1,Grocery
H & M FOOD MART,-85.812309,38.261547,3801 W Market St,NA,Louisville,KY,40212,2536,JEFFERSON,H  M FOOD MART,447110,4,Food Mart
WALGREENS  4216,-85.767822,38.172234,5201 S 3rd St,NA,Louisville,KY,40214,2640,JEFFERSON,WALGREENS,447110,4,Food Mart
WALGREENS  4216,-85.767822,38.172234,5201 S 3rd St,NA,Louisville,KY,40214,2640,JEFFERSON,WALGREENS,445120,3,Convenience Store
THORNTONS QUICK CAFE & MARKET 57,-85.559647,38.293526,10320 Westport Rd,NA,Louisville,KY,40241,2150,JEFFERSON,THORNTONS QUICK CAFE  MARKET,445120,3,Convenience Store
THORNTONS QUICK CAFE & MARKET 94,-85.539139,38.215721,1804 Blankenbaker Pkwy,NA,Louisville,KY,40299,2402,JEFFERSON,THORNTONS QUICK CAFE  MARKET,445120,3,Convenience Store
KROGER #L-00356 L356,-85.520493,38.243767,12501 Shelbyville Rd,NA,Louisville,KY,40243,1530,JEFFERSON,KROGER L L,445110,1,Grocery
THANG-LONG,-85.764771,38.177971,4836 Southside Dr,NA,Louisville,KY,40214,2112,JEFFERSON,THANGLONG,445200,5,Specialized Lines of Food
KROGER L366,-85.668953,38.089672,5001 Mud Ln,NA,Louisville,KY,40229,2870,JEFFERSON,KROGER L,445110,1,Grocery
KROGER #L-00707 L707,-85.576645,38.305859,9440 BROWNSBORO RD,NA,LOUSIVILLE,KY,40241,NA,JEFFERSON,KROGER L L,445110,1,Grocery
DERBY CITY PRODUCE,-85.780197,38.256073,301 S 18th St,NA,Louisville,KY,40203,1619,JEFFERSON,DERBY CITY PRODUCE,445200,5,Specialized Lines of Food
KROGER #L-00400 L400,-85.709496,38.201363,4009 Poplar Level Rd,NA,Louisville,KY,40213,1523,JEFFERSON,KROGER L L,445110,1,Grocery
FIVE STAR F/M 5440,-85.668365,38.079205,155 Hillview Blvd,NA,Louisville,KY,40229,4052,JEFFERSON,FIVE STAR FM,447110,4,Food Mart
Walmart S/C 526,-85.543022,38.299809,3706 Diann Marie Rd,NA,Louisville,KY,40241,3818,JEFFERSON,WALMART SC,452910,2,Super Center and Club Store
WALGREENS 3776,-85.790154,38.228989,1475 Dixie Hwy,NA,Louisville,KY,40210,1767,JEFFERSON,WALGREENS,447110,4,Food Mart
WALGREENS 3776,-85.790154,38.228989,1475 Dixie Hwy,NA,Louisville,KY,40210,1767,JEFFERSON,WALGREENS,445120,3,Convenience Store
F & M FOOD MART,-85.785927,38.208023,1600 Arcade Ave,NA,Louisville,KY,40215,2106,JEFFERSON,F  M FOOD MART,447110,4,Food Mart
THORNTON'S GAS & FOOD MART 61,-85.777611,38.22002,2000 7th Street Rd,NA,Louisville,KY,40208,1005,JEFFERSON,THORNTONS GAS  FOOD MART,445120,3,Convenience Store
THORNTONS QUICK CAFE & MARKET 21,-85.715775,38.157333,2700 Fern Valley Rd,NA,Louisville,KY,40213,3516,JEFFERSON,THORNTONS QUICK CAFE  MARKET,445120,3,Convenience Store
Kader's Supermarket 2,-85.818832,38.257923,4100 W Muhammad Ali Blvd,NA,Louisville,KY,40212,2438,JEFFERSON,KADERS SUPERMARKET,445200,5,Specialized Lines of Food
SPEEDWAY 9701,-85.748665,38.125362,8510 National Tpke,NA,Fairdale,KY,40118,8907,JEFFERSON,SPEEDWAY,445120,3,Convenience Store
BETTER WAY FOOD MART #4,-85.825378,38.208279,4001 Cane Run Rd,NA,Louisville,KY,40216,4801,JEFFERSON,BETTER WAY FOOD MART,447110,4,Food Mart
CVS Pharmacy 6199,-85.799141,38.274326,3130 Portland Ave,NA,Louisville,KY,40212,1140,JEFFERSON,CVS PHARMACY,445120,3,Convenience Store
VALU MARKET,-85.770576,38.1717,5301 Mitscher Ave,NA,Louisville,KY,40214,2633,JEFFERSON,VALU MARKET,445110,1,Grocery
MEIJER 162,-85.862572,38.11311,9905 Dixie Hwy,NA,Louisville,KY,40272,3943,JEFFERSON,MEIJER,452910,2,Super Center and Club Store
MEIJER 164,-85.555756,38.29784,4100 Towne Center Dr,NA,Louisville,KY,40241,4153,JEFFERSON,MEIJER,452910,2,Super Center and Club Store
NEIGHBORHOOD FOOD MART INC,-85.744286,38.241753,542 Lampton St,NA,Louisville,KY,40203,2444,JEFFERSON,NEIGHBORHOOD FOOD MART INC,447110,4,Food Mart
VALU MARKET,-85.620476,38.137531,7519 Outer Loop,NA,Louisville,KY,40228,1726,JEFFERSON,VALU MARKET,445110,1,Grocery
KROGER #L00292 L292,-85.87188,38.144234,7509 Terry Rd,NA,Louisville,KY,40258,2641,JEFFERSON,KROGER L L,445110,1,Grocery
KROGER #L-00327 L327,-85.797401,38.249542,2710 W Broadway,NA,Louisville,KY,40211,1320,JEFFERSON,KROGER L L,445110,1,Grocery
KROGER #L-00360 L360,-85.585876,38.146969,6900 Bardstown Rd,NA,Louisville,KY,40291,3223,JEFFERSON,KROGER L L,445110,1,Grocery
CURTIS MARKET,-85.795425,38.263557,2720 Duncan St,NA,Louisville,KY,40212,1831,JEFFERSON,CURTIS MARKET,447110,4,Food Mart
KROGER #L-00224 L224,-85.703712,38.258564,2200 Brownsboro Rd,NA,Louisville,KY,40206,2141,JEFFERSON,KROGER L L,445110,1,Grocery
KROGER #L-00186 186,-85.631989,38.283722,2219 Holiday Manor Ctr,NA,Louisville,KY,40222,6463,JEFFERSON,KROGER L,445110,1,Grocery
KROGER L00764,-85.574234,38.286888,9501 Westport Rd,NA,Louisville,KY,40241,2221,JEFFERSON,KROGER L,445110,1,Grocery
KROGER STORE L-00763,-85.80497,38.270699,520 N 35th St,NA,Louisville,KY,40212,2120,JEFFERSON,KROGER STORE L,445110,1,Grocery
RAINBOW BLOSSOM INC,-85.659309,38.252209,3738 Lexington Rd,NA,Louisville,KY,40207,3010,JEFFERSON,RAINBOW BLOSSOM INC,445110,1,Grocery
KROGER #L-0032 L332,-85.764938,38.195198,4211 S 3rd St,L322,Louisville,KY,40214,1619,JEFFERSON,KROGER L L,445110,1,Grocery
KROGER #L-0339 L339,-85.687302,38.223621,2440 Bardstown Rd,NA,Louisville,KY,40205,2123,JEFFERSON,KROGER L L,445110,1,Grocery
KROGER #L-00309 L309,-85.573914,38.225689,9812 Linn Station Rd,NA,Louisville,KY,40223,3807,JEFFERSON,KROGER L L,445110,1,Grocery
FiveStar 5462,-85.568314,38.192394,10314 Watterson Trl,NA,Louisville,KY,40299,3554,JEFFERSON,FIVESTAR,445120,3,Convenience Store
SPEEDWAY 9612,-85.72068,38.238297,1101 Bardstown Rd,NA,Louisville,KY,40204,1301,JEFFERSON,SPEEDWAY,445120,3,Convenience Store
Meijer 160,-85.60601,38.186234,4500 S Hurstbourne Pkwy,NA,Louisville,KY,40299,6376,JEFFERSON,MEIJER,452910,2,Super Center and Club Store
KROGER #L-00729 L729,-85.661873,38.199047,3616 BUECHEL BY PASS,NA,LOUISVILLE,KY,40218,NA,JEFFERSON,KROGER L L,445110,1,Grocery
WALGREENS 4163,-85.839523,38.143715,7338 Dixie Hwy,NA,Louisville,KY,40258,3722,JEFFERSON,WALGREENS,447110,4,Food Mart
WALGREENS 4163,-85.839523,38.143715,7338 Dixie Hwy,NA,Louisville,KY,40258,3722,JEFFERSON,WALGREENS,445120,3,Convenience Store
KINGSLEY MEAT & SEAFOOD,-85.669449,38.222965,2701 Taylorsville Rd,NA,Louisville,KY,40205,2337,JEFFERSON,KINGSLEY MEAT  SEAFOOD,445200,5,Specialized Lines of Food
BETTER BARGAINS,-85.881142,38.175201,7207 Lower Hunters Trce,NA,Louisville,KY,40258,3225,JEFFERSON,BETTER BARGAINS,447110,4,Food Mart
E-ZSuper Food Mart 89,-85.773041,38.214092,1100 Algonquin Pkwy,NA,Louisville,KY,40208,1620,JEFFERSON,EZSUPER FOOD MART,447110,4,Food Mart
THORNTON'S GAS & FOOD MART 20,-85.764984,38.188816,4500 S 3rd St,NA,Louisville,KY,40214,1930,JEFFERSON,THORNTONS GAS  FOOD MART,445120,3,Convenience Store
Walmart SUPERCENTER 0589,-85.666161,38.088173,11901 STANDIFORD PLAZA DR.,NA,LOUISVILLE,KY,40229,NA,JEFFERSON,WALMART SUPERCENTER,445110,1,Grocery
WALGREENS 12322,-85.742538,38.214825,800 Eastern Pkwy,NA,Louisville,KY,40217,2262,JEFFERSON,WALGREENS,447110,4,Food Mart
WALGREENS 12322,-85.742538,38.214825,800 Eastern Pkwy,NA,Louisville,KY,40217,2262,JEFFERSON,WALGREENS,445120,3,Convenience Store
WALGREENS  5436,-85.623886,38.219799,4025 Taylorsville Rd,NA,Louisville,KY,40220,1538,JEFFERSON,WALGREENS,447110,4,Food Mart
WALGREENS  5436,-85.623886,38.219799,4025 Taylorsville Rd,NA,Louisville,KY,40220,1538,JEFFERSON,WALGREENS,445120,3,Convenience Store
Schwan's Home Service of Louisville KY,-85.690254,38.073254,267 Carter Ave,NA,Louisville,KY,40229,3092,JEFFERSON,SCHWANS HOME SERVICE OF LOUISVILLE KY,447110,4,Food Mart
MEIJER 166,-85.679413,38.111187,9500 Preston Hwy,NA,Louisville,KY,40229,1166,JEFFERSON,MEIJER,452910,2,Super Center and Club Store
WALGREEN 03756,-85.807655,38.192768,3980 Dixie Hwy,NA,Louisville,KY,40216,4144,JEFFERSON,WALGREEN,445120,3,Convenience Store
WALGREENS  4194,-85.661903,38.197845,2021 Hikes Ln,NA,Louisville,KY,40218,4817,JEFFERSON,WALGREENS,447110,4,Food Mart
WALGREENS  4194,-85.661903,38.197845,2021 Hikes Ln,NA,Louisville,KY,40218,4817,JEFFERSON,WALGREENS,445120,3,Convenience Store
WALGREENS  3777,-85.637253,38.251373,4240 Shelbyville Rd,NA,Louisville,KY,40207,3956,JEFFERSON,WALGREENS,447110,4,Food Mart
WALGREENS  3777,-85.637253,38.251373,4240 Shelbyville Rd,NA,Louisville,KY,40207,3956,JEFFERSON,WALGREENS,445120,3,Convenience Store
"SHALOM TOWERS GROCERIES, INC",-85.649742,38.226246,3650 Dutchmans Ln,NA,Louisville,KY,40205,3303,JEFFERSON,SHALOM TOWERS GROCERIES INC,445200,5,Specialized Lines of Food
WALGREENS  6437,-85.602814,38.258217,520 Lyndon Ln,NA,Louisville,KY,40222,4618,JEFFERSON,WALGREENS,447110,4,Food Mart
WALGREENS  6437,-85.602814,38.258217,520 Lyndon Ln,NA,Louisville,KY,40222,4618,JEFFERSON,WALGREENS,445120,3,Convenience Store
BUSSMANN BAKERY,-85.712372,38.255383,1906 FRANKFORT AVE,NA,LOUISVILLE,KY,40206,NA,JEFFERSON,BUSSMANN BAKERY,445200,5,Specialized Lines of Food
WALGREENS  5449,-85.695786,38.157173,3600 Fern Valley Rd,NA,Louisville,KY,40219,1917,JEFFERSON,WALGREENS,447110,4,Food Mart
WALGREENS  5449,-85.695786,38.157173,3600 Fern Valley Rd,NA,Louisville,KY,40219,1917,JEFFERSON,WALGREENS,445120,3,Convenience Store
WALGREENS  3601,-85.712769,38.205009,3800 Poplar Level Rd,NA,Louisville,KY,40213,1430,JEFFERSON,WALGREENS,447110,4,Food Mart
WALGREENS  3601,-85.712769,38.205009,3800 Poplar Level Rd,NA,Louisville,KY,40213,1430,JEFFERSON,WALGREENS,445120,3,Convenience Store
KROGER #L-00389 L389,-85.596687,38.368198,9151 US HWY 27,NA,PROSPECT,KY,40059,NA,JEFFERSON,KROGER L L,445110,1,Grocery
THORNTON'S GAS & FOOD MART 93,-85.790512,38.2281,1501 Dixie Hwy,NA,Louisville,KY,40210,1743,JEFFERSON,THORNTONS GAS  FOOD MART,445120,3,Convenience Store
RITE AID 4639,-85.783325,38.180386,4149 Taylor Blvd,NA,Louisville,KY,40215,2366,JEFFERSON,RITE AID,447110,4,Food Mart
RITE AID 4639,-85.783325,38.180386,4149 Taylor Blvd,NA,Louisville,KY,40215,2366,JEFFERSON,RITE AID,445120,3,Convenience Store
"RITE AID, #4635",-85.625496,38.219791,4000 Taylorsville Rd,NA,Louisville,KY,40220,1502,JEFFERSON,RITE AID,447110,4,Food Mart
"RITE AID, #4635",-85.625496,38.219791,4000 Taylorsville Rd,NA,Louisville,KY,40220,1502,JEFFERSON,RITE AID,445120,3,Convenience Store
RITE AID #4629,-85.760475,38.235092,409 W Oak St,NA,Louisville,KY,40203,3001,JEFFERSON,RITE AID,447110,4,Food Mart
RITE AID #4629,-85.760475,38.235092,409 W Oak St,NA,Louisville,KY,40203,3001,JEFFERSON,RITE AID,445120,3,Convenience Store
"RITE AID, #4638",-85.598328,38.164524,5601 Bardstown Rd,NA,Louisville,KY,40291,1911,JEFFERSON,RITE AID,447110,4,Food Mart
"RITE AID, #4638",-85.598328,38.164524,5601 Bardstown Rd,NA,Louisville,KY,40291,1911,JEFFERSON,RITE AID,445120,3,Convenience Store
RITE AID 4849,-85.685654,38.172493,4838 Poplar Level Rd,NA,Louisville,KY,40213,2904,JEFFERSON,RITE AID,447110,4,Food Mart
RITE AID 4849,-85.685654,38.172493,4838 Poplar Level Rd,NA,Louisville,KY,40213,2904,JEFFERSON,RITE AID,445120,3,Convenience Store
RITE AID PHARMACY 4646,-85.575653,38.286343,9459 Westport Rd,NA,Louisville,KY,40241,2219,JEFFERSON,RITE AID PHARMACY,447110,4,Food Mart
RITE AID PHARMACY 4646,-85.575653,38.286343,9459 Westport Rd,NA,Louisville,KY,40241,2219,JEFFERSON,RITE AID PHARMACY,445120,3,Convenience Store
RITE AID PHARMACY  4636,-85.837006,38.199509,4315 Cane Run Rd,NA,Louisville,KY,40216,4567,JEFFERSON,RITE AID PHARMACY,447110,4,Food Mart
RITE AID PHARMACY  4636,-85.837006,38.199509,4315 Cane Run Rd,NA,Louisville,KY,40216,4567,JEFFERSON,RITE AID PHARMACY,445120,3,Convenience Store
WALGREENS  5172,-85.776268,38.150063,5400 New Cut Rd,NA,Louisville,KY,40214,4228,JEFFERSON,WALGREENS,447110,4,Food Mart
WALGREENS  5172,-85.776268,38.150063,5400 New Cut Rd,NA,Louisville,KY,40214,4228,JEFFERSON,WALGREENS,445120,3,Convenience Store
RITE AID  4637,-85.76561,38.152626,7118 Southside Dr,NA,Louisville,KY,40214,3660,JEFFERSON,RITE AID,447110,4,Food Mart
RITE AID  4637,-85.76561,38.152626,7118 Southside Dr,NA,Louisville,KY,40214,3660,JEFFERSON,RITE AID,445120,3,Convenience Store
RITE AID 4633,-85.67337,38.213795,3012 Bardstown Rd,NA,Louisville,KY,40205,3020,JEFFERSON,RITE AID,447110,4,Food Mart
RITE AID 4633,-85.67337,38.213795,3012 Bardstown Rd,NA,Louisville,KY,40205,3020,JEFFERSON,RITE AID,445120,3,Convenience Store
THORNTON'S QUICK CAFE & MARKET 50,-85.819084,38.177994,4520 Dixie Hwy,NA,Louisville,KY,40216,2824,JEFFERSON,THORNTONS QUICK CAFE  MARKET,445120,3,Convenience Store
KROGER #L-00739 L739,-85.510231,38.291916,12450 Lagrange Rd,NA,Louisville,KY,40245,1901,JEFFERSON,KROGER L L,445110,1,Grocery
RITE AID 4627,-85.872078,38.143806,7500 Terry Rd,NA,Louisville,KY,40258,2642,JEFFERSON,RITE AID,447110,4,Food Mart
RITE AID 4627,-85.872078,38.143806,7500 Terry Rd,NA,Louisville,KY,40258,2642,JEFFERSON,RITE AID,445120,3,Convenience Store
Kmart 3057,-85.70816,38.199696,4025 Poplar Level Rd,NA,Louisville,KY,40213,1523,JEFFERSON,KMART,452910,2,Super Center and Club Store
Kmart 4006,-85.628891,38.220127,3911 Taylorsville Rd,NA,Louisville,KY,40220,1414,JEFFERSON,KMART,452910,2,Super Center and Club Store
Kmart 7288,-85.776161,38.126457,191 Outer Loop,NA,Louisville,KY,40214,5544,JEFFERSON,KMART,452910,2,Super Center and Club Store
CVS Pharmacy 6202,-85.704987,38.258904,2106 Brownsboro Rd,NA,Louisville,KY,40206,2120,JEFFERSON,CVS PHARMACY,445120,3,Convenience Store
CVS Pharmacy 6206,-85.66851,38.087528,5121 Antle Dr,NA,Louisville,KY,40229,2872,JEFFERSON,CVS PHARMACY,445120,3,Convenience Store
CVS PHARMACY 6210,-85.757454,38.251041,501 S 4th Street,NA,LOUISVILLE,KY,40202,NA,JEFFERSON,CVS PHARMACY,445120,3,Convenience Store
CVS Pharmacy 6207,-85.76841,38.169888,5330 S 3rd St,NA,Louisville,KY,40214,2612,JEFFERSON,CVS PHARMACY,445120,3,Convenience Store
PORTLAND SAVE A LOT,-85.79071,38.27129,2626 Portland Ave,NA,Louisville,KY,40212,1042,JEFFERSON,PORTLAND SAVE A LOT,447110,4,Food Mart
ALDI 039,-85.636978,38.186768,4301 Bardstown Rd,NA,Louisville,KY,40218,3233,JEFFERSON,ALDI,445110,1,Grocery
THORNTON'S QUICK CAFE & MARKET 96,-85.701988,38.1875,4516 Poplar Level Rd,NA,Louisville,KY,40213,2124,JEFFERSON,THORNTONS QUICK CAFE  MARKET,445120,3,Convenience Store
THORNTON'S QUICK CAFE & MARKET 60,-85.73288,38.199547,3320 Preston Hwy,NA,Louisville,KY,40213,1332,JEFFERSON,THORNTONS QUICK CAFE  MARKET,445120,3,Convenience Store
B & E SALVAGE #2,-85.680031,38.126354,8645 Preston Hwy,NA,Louisville,KY,40219,5305,JEFFERSON,B  E SALVAGE,447110,4,Food Mart
BLUE GRASS MEATS & SEAFOOD,-85.841553,38.139904,7675 DIXIE HWY,NA,LOUISVILLE,KY,40258,NA,JEFFERSON,BLUE GRASS MEATS  SEAFOOD,445200,5,Specialized Lines of Food
Walmart STORE  1269,-85.585243,38.21817,1915 S Hurstbourne Pkwy,NA,Louisville,KY,40220,1645,JEFFERSON,WALMART STORE,445110,1,Grocery
Walmart STORE  1170,-85.869392,38.10321,10445 Dixie Hwy,NA,Louisville,KY,40272,3953,JEFFERSON,WALMART STORE,445110,1,Grocery
Walmart S/C  3294,-85.585625,38.144703,7101 Cedar Springs Blvd,NA,Louisville,KY,40291,2587,JEFFERSON,WALMART SC,452910,2,Super Center and Club Store
RAINBOW BLOSSOM NATURAL FOOD MRKT,-85.528053,38.247143,12232 Shelbyville Rd,NA,Louisville,KY,40243,1417,JEFFERSON,RAINBOW BLOSSOM NATURAL FOOD MRKT,445110,1,Grocery
BADER'S FOOD MART,-85.752197,38.252808,300 S 1st St,NA,Louisville,KY,40202,1414,JEFFERSON,BADERS FOOD MART,447110,4,Food Mart
Circle K 2723222,-85.803177,38.121475,8320 3rd Street Rd,NA,Louisville,KY,40214,5524,JEFFERSON,CIRCLE K,445120,3,Convenience Store
Circle K 2723221,-85.579697,38.2052,9602 Taylorsville Rd,NA,Jeffersontown,KY,40299,2737,JEFFERSON,CIRCLE K,445120,3,Convenience Store
Circle K 2723245,-85.713669,38.175583,5001 Preston Hwy,NA,Louisville,KY,40213,2213,JEFFERSON,CIRCLE K,445120,3,Convenience Store
Circle K 2723237,-85.623444,38.179245,4700 Bardstown Rd,NA,Louisville,KY,40218,4006,JEFFERSON,CIRCLE K,445120,3,Convenience Store
Circle K 2723246,-85.766273,38.181156,4701 S 3rd St,NA,Louisville,KY,40214,2123,JEFFERSON,CIRCLE K,445120,3,Convenience Store
Circle K 2723234,-85.764885,38.191978,4347 S 3rd St,NA,Louisville,KY,40214,1561,JEFFERSON,CIRCLE K,445120,3,Convenience Store
Circle K 2723232,-85.88681,38.061638,13401 Dixie Hwy,NA,Louisville,KY,40272,1363,JEFFERSON,CIRCLE K,445120,3,Convenience Store
BOONE DBA CHEVRON FOOD MART,-85.74295,38.244987,601 E Broadway,NA,Louisville,KY,40202,1709,JEFFERSON,BOONE DBA CHEVRON FOOD MART,445120,3,Convenience Store
WALGREENS  6443,-85.72448,38.240406,990 Baxter Ave,NA,Louisville,KY,40204,2064,JEFFERSON,WALGREENS,447110,4,Food Mart
WALGREENS  6443,-85.72448,38.240406,990 Baxter Ave,NA,Louisville,KY,40204,2064,JEFFERSON,WALGREENS,445120,3,Convenience Store
KROGER #L-00350 L350,-85.774643,38.143333,5553 New Cut Rd,NA,Louisville,KY,40214,NA,JEFFERSON,KROGER L L,445110,1,Grocery
BINH PHUOC ORIENTAL MARKET,-85.768059,38.171124,5301 S 3rd St,NA,Louisville,KY,40214,2611,JEFFERSON,BINH PHUOC ORIENTAL MARKET,445200,5,Specialized Lines of Food
Circle K 2723231,-85.782738,38.268425,2100 Portland Ave,NA,Louisville,KY,40212,1032,JEFFERSON,CIRCLE K,445120,3,Convenience Store
Walmart NEIGHBORHOOD MKT 5183,-85.565315,38.18848,3800 Ruckriegel Pkwy,NA,Jeffersontown,KY,40299,3958,JEFFERSON,WALMART NEIGHBORHOOD MKT,445110,1,Grocery
THORNTONS QUICK CAFE & MARKET 24,-85.644005,38.220852,3726 Taylorsville Rd,NA,Louisville,KY,40220,1344,JEFFERSON,THORNTONS QUICK CAFE  MARKET,445120,3,Convenience Store
SUPER STOP FOOD MART,-85.691063,38.146366,7303 Preston Hwy,NA,Louisville,KY,40219,2742,JEFFERSON,SUPER STOP FOOD MART,447110,4,Food Mart
KROGER #L-00376 L376,-85.678711,38.138252,4501 Outer Loop,NA,Louisville,KY,40219,3856,JEFFERSON,KROGER L L,445110,1,Grocery
THORNTONS QUICK CAFE & MARKET 95,-85.508209,38.242374,13314 Shelbyville Rd,NA,Louisville,KY,40223,3936,JEFFERSON,THORNTONS QUICK CAFE  MARKET,445120,3,Convenience Store
WHOLE FOODS MARKET 10186,-85.625244,38.250374,4944 Shelbyville Rd,NA,Louisville,KY,40207,3306,JEFFERSON,WHOLE FOODS MARKET,445110,1,Grocery
Circle K 272134,-85.660057,38.160015,6204 Shepherdsville Rd,NA,Louisville,KY,40228,1026,JEFFERSON,CIRCLE K,445120,3,Convenience Store
Circle K 2723230,-85.659477,38.178288,5000 Shepherdsville Rd,NA,Louisville,KY,40228,1002,JEFFERSON,CIRCLE K,445120,3,Convenience Store
SAVE-A-LOT,-85.792099,38.224365,1804 Dixie Hwy,NA,Louisville,KY,40210,2304,JEFFERSON,SAVEALOT,445110,1,Grocery
SAVE A LOT 386,-85.840813,38.19656,4443 Cane Run Rd,NA,Louisville,KY,40216,4594,JEFFERSON,SAVE A LOT,445110,1,Grocery
THORNTON'S GAS & FOOD MART 49,-85.880348,38.084549,11710 S Dixie Hwy,NA,Louisville,KY,40272,4805,JEFFERSON,THORNTONS GAS  FOOD MART,445120,3,Convenience Store
CVS Pharmacy 6203,-85.807899,38.192039,3997 7th Street Rd,NA,Louisville,KY,40216,4103,JEFFERSON,CVS PHARMACY,445120,3,Convenience Store
KROGER  752,-85.763199,38.203194,3165 S 2nd St,NA,Louisville,KY,40208,1446,JEFFERSON,KROGER,445110,1,Grocery
"ALWATAN BAKERY, INC.",-85.639969,38.21043,3711 Klondike Ln,NA,Louisville,KY,40218,1712,JEFFERSON,ALWATAN BAKERY INC,445200,5,Specialized Lines of Food
Thornton's 28,-85.753624,38.245712,100 W Broadway,NA,Louisville,KY,40202,2110,JEFFERSON,THORNTONS,445120,3,Convenience Store
Walmart NEIGHBORHOOD MKT  5297,-85.644707,38.254192,143 Thierman Ln,NA,St Matthews,KY,40207,5009,JEFFERSON,WALMART NEIGHBORHOOD MKT,445110,1,Grocery
DOLLAR GENERAL 7924,-85.655212,38.214836,2817 DEL RIO PLACE,NA,LOUISVILLE,KY,40220,NA,JEFFERSON,DOLLAR GENERAL,447110,4,Food Mart
DOLLAR GENERAL 7924,-85.655212,38.214836,2817 DEL RIO PLACE,NA,LOUISVILLE,KY,40220,NA,JEFFERSON,DOLLAR GENERAL,445120,3,Convenience Store
DOLLAR GENERAL 3174,-85.688232,38.076988,201 Terry Blvd,NA,Louisville,KY,40229,6070,JEFFERSON,DOLLAR GENERAL,447110,4,Food Mart
DOLLAR GENERAL 3174,-85.688232,38.076988,201 Terry Blvd,NA,Louisville,KY,40229,6070,JEFFERSON,DOLLAR GENERAL,445120,3,Convenience Store
DOLLAR GENERAL  2571,-85.680061,38.126408,8641 Preston Hwy,NA,Louisville,KY,40219,5305,JEFFERSON,DOLLAR GENERAL,447110,4,Food Mart
DOLLAR GENERAL  2571,-85.680061,38.126408,8641 Preston Hwy,NA,Louisville,KY,40219,5305,JEFFERSON,DOLLAR GENERAL,445120,3,Convenience Store
Circle K 272076,-85.810257000000007,38.189148,4100 Dixie Hwy,NA,Louisville,KY,40216,3812,JEFFERSON,CIRCLE K,445120,3,Convenience Store
Dairy Mart 3267,-85.78273,38.199654,3400 Taylor Blvd,NA,Louisville,KY,40215,2607,JEFFERSON,DAIRY MART,447110,4,Food Mart
DOLLAR GENERAL  0598,-85.623062,38.179001,4744 Bardstown Rd,NA,Louisville,KY,40218,4006,JEFFERSON,DOLLAR GENERAL,447110,4,Food Mart
DOLLAR GENERAL  0598,-85.623062,38.179001,4744 Bardstown Rd,NA,Louisville,KY,40218,4006,JEFFERSON,DOLLAR GENERAL,445120,3,Convenience Store
DOLLAR GENERAL 0495,-85.840813,38.19656,4443 Cane Run Rd,Ste 150,Louisville,KY,40216,6514,JEFFERSON,DOLLAR GENERAL,447110,4,Food Mart
DOLLAR GENERAL 0495,-85.840813,38.19656,4443 Cane Run Rd,Ste 150,Louisville,KY,40216,6514,JEFFERSON,DOLLAR GENERAL,445120,3,Convenience Store
DOLLAR GENERAL  0295,-85.846825,38.177719,2625 Rockford Ln,NA,Shively,KY,40216,2954,JEFFERSON,DOLLAR GENERAL,447110,4,Food Mart
DOLLAR GENERAL  0295,-85.846825,38.177719,2625 Rockford Ln,NA,Shively,KY,40216,2954,JEFFERSON,DOLLAR GENERAL,445120,3,Convenience Store
DOLLAR GENERAL 0059,-85.748444,38.123203,8701 National Tpke,NA,Fairdale,KY,40118,8909,JEFFERSON,DOLLAR GENERAL,447110,4,Food Mart
DOLLAR GENERAL 0059,-85.748444,38.123203,8701 National Tpke,NA,Fairdale,KY,40118,8909,JEFFERSON,DOLLAR GENERAL,445120,3,Convenience Store
DOLLAR GENERAL  3302,-85.874214,38.130596,8519 Terry Rd,NA,Louisville,KY,40258,1751,JEFFERSON,DOLLAR GENERAL,447110,4,Food Mart
DOLLAR GENERAL  3302,-85.874214,38.130596,8519 Terry Rd,NA,Louisville,KY,40258,1751,JEFFERSON,DOLLAR GENERAL,445120,3,Convenience Store
DOLLAR GENERAL  0538,-85.881592,38.082256,11909 Dixie Hwy,NA,Valley Station,KY,40272,4808,JEFFERSON,DOLLAR GENERAL,447110,4,Food Mart
DOLLAR GENERAL  0538,-85.881592,38.082256,11909 Dixie Hwy,NA,Valley Station,KY,40272,4808,JEFFERSON,DOLLAR GENERAL,445120,3,Convenience Store
DOLLAR GENERAL  0992,-85.689552,38.114517,9308 Blue Lick Rd,NA,Louisville,KY,40229,1054,JEFFERSON,DOLLAR GENERAL,447110,4,Food Mart
DOLLAR GENERAL  0992,-85.689552,38.114517,9308 Blue Lick Rd,NA,Louisville,KY,40229,1054,JEFFERSON,DOLLAR GENERAL,445120,3,Convenience Store
DOLLAR GENERAL 2044,-85.681519,38.166065,4207 Medallion Ct,NA,Louisville,KY,40219,1673,JEFFERSON,DOLLAR GENERAL,447110,4,Food Mart
DOLLAR GENERAL 2044,-85.681519,38.166065,4207 Medallion Ct,NA,Louisville,KY,40219,1673,JEFFERSON,DOLLAR GENERAL,445120,3,Convenience Store
DOLLAR GENERAL  7153,-85.711685,38.175377,1207 Gilmore Ln,NA,Louisville,KY,40213,2307,JEFFERSON,DOLLAR GENERAL,447110,4,Food Mart
DOLLAR GENERAL  7153,-85.711685,38.175377,1207 Gilmore Ln,NA,Louisville,KY,40213,2307,JEFFERSON,DOLLAR GENERAL,445120,3,Convenience Store
Dollar General 2180,-85.777283,38.144188,7427 3rd Street Rd,NA,Louisville,KY,40214,4361,JEFFERSON,DOLLAR GENERAL,447110,4,Food Mart
Dollar General 2180,-85.777283,38.144188,7427 3rd Street Rd,NA,Louisville,KY,40214,4361,JEFFERSON,DOLLAR GENERAL,445120,3,Convenience Store
DOLLAR GENERAL  2353,-85.620506,38.137527,7513 Outer Loop,NA,Louisville,KY,40228,1726,JEFFERSON,DOLLAR GENERAL,447110,4,Food Mart
DOLLAR GENERAL  2353,-85.620506,38.137527,7513 Outer Loop,NA,Louisville,KY,40228,1726,JEFFERSON,DOLLAR GENERAL,445120,3,Convenience Store
DOLLAR GENERAL  6113,-85.811348,38.222176,3517 Cane Run Rd,NA,Louisville,KY,40211,1918,JEFFERSON,DOLLAR GENERAL,447110,4,Food Mart
DOLLAR GENERAL  6113,-85.811348,38.222176,3517 Cane Run Rd,NA,Louisville,KY,40211,1918,JEFFERSON,DOLLAR GENERAL,445120,3,Convenience Store
DOLLAR GENERAL  9126,-85.579971,38.205505,9541 Taylorsville Rd,NA,Jeffersontown,KY,40299,2754,JEFFERSON,DOLLAR GENERAL,447110,4,Food Mart
DOLLAR GENERAL  9126,-85.579971,38.205505,9541 Taylorsville Rd,NA,Jeffersontown,KY,40299,2754,JEFFERSON,DOLLAR GENERAL,445120,3,Convenience Store
DOLLAR GENERAL 8553,-85.887978,38.139622,7005 Global Dr,NA,Louisville,KY,40258,1977,JEFFERSON,DOLLAR GENERAL,447110,4,Food Mart
DOLLAR GENERAL 8553,-85.887978,38.139622,7005 Global Dr,NA,Louisville,KY,40258,1977,JEFFERSON,DOLLAR GENERAL,445120,3,Convenience Store
GFS Marketplace MP111,-85.576866,38.238319,641 S Hurstbourne Pkwy,NA,Louisville,KY,40222,5040,JEFFERSON,GFS MARKETPLACE MP,452910,2,Super Center and Club Store
KROGER #L-00379 L379,-85.5896,38.214348,9080 Taylorsville Rd,NA,Louisville,KY,40299,1750,JEFFERSON,KROGER L L,445110,1,Grocery
CHOIS ASIAN FOOD MARKET,-85.604492,38.259472,607 Lyndon Ln,NA,Louisville,KY,40222,4639,JEFFERSON,CHOIS ASIAN FOOD MARKET,445200,5,Specialized Lines of Food
Kroger 785,-85.828499,38.16843,4915 Dixie Hwy,Ste A,Louisville,KY,40216,2501,JEFFERSON,KROGER,445110,1,Grocery
DOLLAR GENERAL 9448,-85.661148,38.154549,5501 Clearwater Farms,NA,Louisville,KY,40219,NA,JEFFERSON,DOLLAR GENERAL,447110,4,Food Mart
DOLLAR GENERAL 9448,-85.661148,38.154549,5501 Clearwater Farms,NA,Louisville,KY,40219,NA,JEFFERSON,DOLLAR GENERAL,445120,3,Convenience Store
THORNTONS QUICK CAFE & MKT 154,-85.668655,38.208012,3300 Bardstown Rd,NA,Louisville,KY,40218,4602,JEFFERSON,THORNTONS QUICK CAFE  MKT,445120,3,Convenience Store
THORNTONS QUICK CAFE & MKT 153,-85.604691,38.364056,13302 W Highway 42,NA,Prospect,KY,40059,9202,JEFFERSON,THORNTONS QUICK CAFE  MKT,445120,3,Convenience Store
Thornton's 151,-85.578476,38.131882,7920 Bardstown Rd,NA,Louisville,KY,40291,3438,JEFFERSON,THORNTONS,445120,3,Convenience Store
THORNTONS QUICK CAFE & MKT 152,-85.869881,38.102444,10501 Dixie Hwy,NA,Louisville,KY,40272,4347,JEFFERSON,THORNTONS QUICK CAFE  MKT,445120,3,Convenience Store
THORNTONS QUICK CAFE & MKT 031,-85.511757,38.290051,12412 Lagrange Rd,NA,Louisville,KY,40245,1901,JEFFERSON,THORNTONS QUICK CAFE  MKT,445120,3,Convenience Store
THORNTONS QUICK CAFE & MKT 026,-85.487846,38.23885,14101 Shelbyville Rd,NA,Louisville,KY,40245,4108,JEFFERSON,THORNTONS QUICK CAFE  MKT,445120,3,Convenience Store
THORNTONS QUICK CAFE & MKT 034,-85.603989,38.25893,605 Lyndon Ln,NA,Louisville,KY,40222,4639,JEFFERSON,THORNTONS QUICK CAFE  MKT,445120,3,Convenience Store
THORNTONS QUICK CAFE & MKT 102,-85.629204,38.220177,3909 Taylorsville Rd,NA,Louisville,KY,40220,1414,JEFFERSON,THORNTONS QUICK CAFE  MKT,445120,3,Convenience Store
SPEEDWAY 9678,-85.775993,38.206524,3030 Taylor Blvd,NA,Louisville,KY,40208,1157,JEFFERSON,SPEEDWAY,445120,3,Convenience Store
THORNTONS QUICK CAFE & MARKET 41,-85.709183,38.171238,5318 Preston Hwy,NA,Louisville,KY,40213,2714,JEFFERSON,THORNTONS QUICK CAFE  MARKET,445120,3,Convenience Store
SPEEDWAY 9648,-85.784317,38.262325,2112 Duncan St,NA,Louisville,KY,40212,1367,JEFFERSON,SPEEDWAY,445120,3,Convenience Store
Thorton's 54,-85.643066,38.189899,4154 Bardstown Rd,NA,Louisville,KY,40218,3245,JEFFERSON,THORTONS,445120,3,Convenience Store
THORNTON'S GAS & FOOD MART 27,-85.707222,38.259666,2007 Brownsboro Rd,NA,Louisville,KY,40206,2117,JEFFERSON,THORNTONS GAS  FOOD MART,445120,3,Convenience Store
TAYLOR BLVD PIC PAC,-85.776535,38.206139,3110 Taylor Blvd,NA,Louisville,KY,40215,2603,JEFFERSON,TAYLOR BLVD PIC PAC,447110,4,Food Mart
WALGREEN 12321,-85.769905,38.211571,700 Algonquin Pkwy,NA,Louisville,KY,40208,1651,JEFFERSON,WALGREEN,445120,3,Convenience Store
TOM'S FRUIT MARKET,-85.763519,38.158962,6722 Strawberry Ln,NA,Louisville,KY,40214,3036,JEFFERSON,TOMS FRUIT MARKET,445200,5,Specialized Lines of Food
SPEEDWAY 9653,-85.728745,38.219673,1422 Poplar Level Rd,NA,Louisville,KY,40217,1345,JEFFERSON,SPEEDWAY,445120,3,Convenience Store
WALGREEN 02924,-85.700684,38.25359,2368 Frankfort Ave,NA,Louisville,KY,40206,2466,JEFFERSON,WALGREEN,445120,3,Convenience Store
SPEEDWAY 9714,-85.838417,38.198643,4340 Cane Run Rd,NA,Louisville,KY,40216,4568,JEFFERSON,SPEEDWAY,445120,3,Convenience Store
Beechmont Open Air Market,-85.7676285,38.1841037,The corner of Wellington and Southern parkway,NA,Louisville,KY,40214,NA,JEFFERSON,BEECHMONT OPEN AIR MARKET,6,6,Farmer's Market
Bluegrass Global Growers Market,-85.763805,38.178432,4801 Southside Drive,NA,Louisville,KY,40214,NA,JEFFERSON,BLUEGRASS GLOBAL GROWERS MARKET,6,6,Farmer's Market
Douglass Loop Farmers' Market,-85.694272,38.225492,2005 Douglass Blvd,NA,Louisville,KY,40205,NA,JEFFERSON,DOUGLASS LOOP FARMERS MARKET,6,6,Farmer's Market
Gray Street Farmers Market,-85.746144,38.246362,400 - 485 E Gray St,NA,Louisville,KY,40202,NA,JEFFERSON,GRAY STREET FARMERS MARKET,6,6,Farmer's Market
Louisville Farmers Market,-85.493095,38.238483,153 South English Station Rd,NA,Louisville,KY,40245,NA,JEFFERSON,LOUISVILLE FARMERS MARKET,6,6,Farmer's Market
Lyndon Farmers' Market,-85.612424,38.272937,7515 Westport Road,NA,Louisville,KY,40222,NA,JEFFERSON,LYNDON FARMERS MARKET,6,6,Farmer's Market
Old Louisville Farm Works Market,-85.7584,38.2362,1143 South Third St.,NA,Lousiville,KY,NA,NA,JEFFERSON,OLD LOUISVILLE FARM WORKS MARKET,6,6,Farmer's Market
Phoenix Hill NuLu Farmers' Market,-85.733185,38.251544,1007 E. Jefferson St.,NA,Louisville,KY,40206,NA,JEFFERSON,PHOENIX HILL NULU FARMERS MARKET,6,6,Farmer's Market
Rainbow Blossom Farmers' Market,-85.6588,38.2524,3738 Lexington Road,NA,Louisville,KY,NA,NA,JEFFERSON,RAINBOW BLOSSOM FARMERS MARKET,6,6,Farmer's Market
Saint Andrew Farmers Market,-85.6230386,38.2275306,2608 Browns Lane,NA,Louisville,KY,40220,NA,JEFFERSON,SAINT ANDREW FARMERS MARKET,6,6,Farmer's Market
South Points Farmers Market,-85.784554,38.181518,4148 Taylor Blvd,NA,Louisville/Jefferson County metro government (balance),KY,40215,NA,JEFFERSON,SOUTH POINTS FARMERS MARKET,6,6,Farmer's Market
"Southwest Farmers Market Louisville, KY",-85.868753,38.10686,10200 Dixie Hway,NA,Louisville/Jefferson County metro government (balance),KY,40272,NA,JEFFERSON,SOUTHWEST FARMERS MARKET LOUISVILLE KY,6,6,Farmer's Market
St. Matthews Farmers Market,-85.6454,38.2512,330 N. Hubbard Lane,NA,Louisville,KY,40207,NA,JEFFERSON,ST MATTHEWS FARMERS MARKET,6,6,Farmer's Market
The Original Bardstown Road Farmers Market,-85.702387,38.229066,1722 Bardstown Road,NA,Louisville,KY,40205,NA,JEFFERSON,THE ORIGINAL BARDSTOWN ROAD FARMERS MARKET,445200,5,Specialized Lines of Food
Westport Rd Baptist Farmers Market,-85.5719634,38.2888862,9705 Westport Rd,NA,Louisville,KY,40241,NA,JEFFERSON,WESTPORT RD BAPTIST FARMERS MARKET,6,6,Farmer's Market
